PK,NOMBRE,DESCRIPCION,ACCESIBILIDAD,CONTENT-URL,DIRECCION,wikidata_calle,NUM,PLANTA,ORIENTACION,LOCALIDAD,wikidata_localidad,COMUNIDAD AUTONOMA,wikidata_provincia,CODIGO-POSTAL,COD-BARRIO,BARRIO,wikidata_barrio,COD-DISTRITO,DISTRITO,wikidata_distrito,COORDENADA-X,COORDENADA-Y,LATITUD,LONGITUD,TELEFONO,EMAIL
11544480,Aparcamiento mixto. Alcántara,Plazas: 121 públicas y 254 para residentes Abierto 24 horas  Titularidad: Ayuntamiento de Madrid,0,http://www.madrid.es/sites/v/index.jsp?vgnextchannel=bfa48ab43d6bb410VgnVCM100000171f5a0aRCRD&vgnextoid=79df252aa267d710VgnVCM1000001d4a900aRCRD,"Calle de Alcántara, Madrid",https://wikidata.org/entity/Q28070781,26,,,Madrid,https://wikidata.org/entity/Q2807,Community of Madrid,https://wikidata.org/entity/Q5756,28006,2,Goya,https://wikidata.org/entity/Q3814578,4,Salamanca,https://wikidata.org/entity/Q1773521,442847,4475502,40.428193768950756,-3.673778093084516,,
13470,Aparcamiento mixto. Arquitecto Ribera,Plazas: 318 públicas y 298 para residentes Abierto 24 horas Admite Tarjeta BonoRed  Titularidad: Ayuntamiento de Madrid,0,http://www.madrid.es/sites/v/index.jsp?vgnextchannel=bfa48ab43d6bb410VgnVCM100000171f5a0aRCRD&vgnextoid=a50e15cbed51c010VgnVCM2000000c205a0aRCRD,calle de Barceló,https://wikidata.org/entity/Q27051120,2,,,Madrid,https://wikidata.org/entity/Q2807,Community of Madrid,https://wikidata.org/entity/Q5756,28004,4,Justicia,https://wikidata.org/entity/Q1992319,1,Centro,https://wikidata.org/entity/Q1763376,440589,4475306,40.426273740022,-3.70037418702346,,
59060,Aparcamiento mixto. Avenida de América (intercambiador),"Información sobre accesibilidad:  Tiene escaleras adaptadas Ascensor de salida a la calle Avenida de América, 9 Tiene aseos accesibles Plazas para minusválidos    Plazas: 261 públicas y 395 para residentes  Abierto 24 horas   Titularidad: Ayuntamiento de Madrid",0,http://www.madrid.es/sites/v/index.jsp?vgnextchannel=bfa48ab43d6bb410VgnVCM100000171f5a0aRCRD&vgnextoid=3f3bc2c6e051c010VgnVCM2000000c205a0aRCRD,"Avenida de América, Madrid",https://wikidata.org/entity/Q5686040,9,,,Madrid,https://wikidata.org/entity/Q2807,Community of Madrid,https://wikidata.org/entity/Q5756,28002,2,Prosperidad,https://wikidata.org/entity/Q4776,5,Chamartín,https://wikidata.org/entity/Q1766348,442596,4476612,40.4381779662151,-3.67683406459837,917 376 257,intercambiador@intercambiador.net
5898885,Aparcamiento mixto. Avenida de Portugal,"Plazas: 428 públicas y 445 para residentes  Informacion sobre accesibilidad:  No tiene escalera adaptada Tiene ascensor de salida a Avenida de Portugal, s/n 1 aseo accesible (nivel-3) Plazas para minusválidos residentes: 20   Abierto 24 horas  Titularidad: Ayuntamiento de Madrid  Gestión: Empresa Municipal de Transportes (EMT) (más información)",0,http://www.madrid.es/sites/v/index.jsp?vgnextchannel=bfa48ab43d6bb410VgnVCM100000171f5a0aRCRD&vgnextoid=c313e26f2b3fc210VgnVCM2000000c205a0aRCRD,Avenida de Portugal,https://wikidata.org/entity/Q26736141,155,,,Madrid,https://wikidata.org/entity/Q2807,Community of Madrid,https://wikidata.org/entity/Q5756,28011,2,Barrio de Puerta del Ángel,https://wikidata.org/entity/Q31142,10,Latina,https://wikidata.org/entity/Q794954,437376,4473663,40.4112391063366,-3.73808787568741,917 877 292 (grúa municipal),aparcamientos@emtmadrid.es
13475,Aparcamiento mixto. Brasil,Plazas: 226 públicas y 402 para residentes Abierto 24 horas  Titularidad: Ayuntamiento de Madrid,0,http://www.madrid.es/sites/v/index.jsp?vgnextchannel=bfa48ab43d6bb410VgnVCM100000171f5a0aRCRD&vgnextoid=fb2e15cbed51c010VgnVCM2000000c205a0aRCRD,"Calle de San Germán, Madrid",https://wikidata.org/entity/Q26750807,7,,,Madrid,https://wikidata.org/entity/Q2807,Community of Madrid,https://wikidata.org/entity/Q5756,28020,2,Cuatro Caminos,https://wikidata.org/entity/Q5824684,6,Tetuán,https://wikidata.org/entity/Q1773540,441198,4478611,40.4560925110791,-3.69349688854822,,
183747,Aparcamiento mixto. Casino de la Reina,Plazas: 135 públicas y 449 para residentes Abierto 24 horas  Titularidad: Ayuntamiento de Madrid,0,http://www.madrid.es/sites/v/index.jsp?vgnextchannel=bfa48ab43d6bb410VgnVCM100000171f5a0aRCRD&vgnextoid=c5f4bdc85c01c010VgnVCM2000000c205a0aRCRD,"Calle del Casino, Madrid",https://wikidata.org/entity/Q26248358,3,,,Madrid,https://wikidata.org/entity/Q2807,Community of Madrid,https://wikidata.org/entity/Q5756,28005,2,Embajadores,https://wikidata.org/entity/Q2449844,1,Centro,https://wikidata.org/entity/Q1763376,440274,4473180,40.40709468568204,-3.7038875277131464,,
183748,Aparcamiento mixto. Daoíz y Velarde,Plazas: 235 públicas y 253 para residentes Abierto 24 horas  Titularidad: Ayuntamiento de Madrid,0,http://www.madrid.es/sites/v/index.jsp?vgnextchannel=bfa48ab43d6bb410VgnVCM100000171f5a0aRCRD&vgnextoid=0f85bdc85c01c010VgnVCM2000000c205a0aRCRD,Avenida de la Ciudad de Barcelona,https://wikidata.org/entity/Q5714227,156,,,Madrid,https://wikidata.org/entity/Q2807,Community of Madrid,https://wikidata.org/entity/Q5756,28007,1,Pacífico,https://wikidata.org/entity/Q3773753,3,Retiro,https://wikidata.org/entity/Q2002296,442498,4472658,40.40255344121901,-3.67763144165245,S/T,
44724,Aparcamiento mixto. Díaz Porlier,Plazas: 203 públicas y 421 para residentes Abierto 24 horas  Titularidad: Ayuntamiento de Madrid,0,http://www.madrid.es/sites/v/index.jsp?vgnextchannel=bfa48ab43d6bb410VgnVCM100000171f5a0aRCRD&vgnextoid=9e69946be351c010VgnVCM2000000c205a0aRCRD,"Calle de Diego de León, Madrid",https://wikidata.org/entity/Q28059485,64,,,Madrid,https://wikidata.org/entity/Q2807,Community of Madrid,https://wikidata.org/entity/Q5756,28006,5,Lista,https://wikidata.org/entity/Q4779,4,Salamanca,https://wikidata.org/entity/Q1773521,442707,4476204,40.434510199279615,-3.6754840133107027,91 401 73 74,
36269,Aparcamiento mixto. Encuentro,Plazas: 104 públicas y 550 para residentes Abierto 24 horas  Titularidad: Ayuntamiento de Madrid,0,http://www.madrid.es/sites/v/index.jsp?vgnextchannel=bfa48ab43d6bb410VgnVCM100000171f5a0aRCRD&vgnextoid=c3e12c798651c010VgnVCM2000000c205a0aRCRD,PLAZA ENCUENTRO,,5,,,Madrid,https://wikidata.org/entity/Q2807,Community of Madrid,https://wikidata.org/entity/Q5756,28030,4,Media Legua,https://wikidata.org/entity/Q9031035,14,Moratalaz,https://wikidata.org/entity/Q2076109,444728,4473010,40.4058768185719,--3.65138632197171,91 328 36 80,
13464,Aparcamiento mixto. Felipe II,Plazas: 1175 públicas rotacionales y 615 para residentes  Información sobre accesibilidad:   No tiene escaleras adaptadas Ascensor de salida a la plaza de Felipe II Aseo accesible (1&amp;ordf; planta) Plazas para minusválidos residentes:23   Abierto 24 horas   Admite tarjeta BonoRed   Titularidad: Ayuntamiento de Madrid,0,http://www.madrid.es/sites/v/index.jsp?vgnextchannel=bfa48ab43d6bb410VgnVCM100000171f5a0aRCRD&vgnextoid=425e15cbed51c010VgnVCM2000000c205a0aRCRD,Calle de Goya,https://wikidata.org/entity/Q28015873,88,,,Madrid,https://wikidata.org/entity/Q2807,Community of Madrid,https://wikidata.org/entity/Q5756,28001,1,Recoletos,https://wikidata.org/entity/Q3814551,4,Salamanca,https://wikidata.org/entity/Q1773521,441502,4475253,40.4242207643363,-3.67342185936768,,
13462,Aparcamiento mixto. Fuencarral,"Plazas: 410 públicas y 111 para residentes  Información sobre accesibilidad:   No tiene escalera adaptada 1 ascensor con salida a la calle Fuencarral, 117 1 aseo accesible en la 1&amp;ordf; planta Plazas para minusválidos residentes: 7   Abierto 24 horas   Admite Tarjeta BonoRed   Titularidad: Ayuntamiento de Madrid",0,http://www.madrid.es/sites/v/index.jsp?vgnextchannel=bfa48ab43d6bb410VgnVCM100000171f5a0aRCRD&vgnextoid=987e15cbed51c010VgnVCM2000000c205a0aRCRD,calle de Fuencarral,https://wikidata.org/entity/Q5740840,121,,,Madrid,https://wikidata.org/entity/Q2807,Community of Madrid,https://wikidata.org/entity/Q5756,28010,3,Trafalgar,https://wikidata.org/entity/Q10384027,7,Chamberí,https://wikidata.org/entity/Q1763370,440387,4475680,40.4296270729669,-3.70279096159205,"Centralita EMT 914 068 810 ----                                                      

Aparcamiento      915 911 200",aparcamientos@emtmadrid.es
36270,Aparcamiento mixto. Hernani,"Plazas: 115 públicas y 380 residentes  Información sobre accesibilidad:  No tiene escaleras adptadas Ascensor de salida a la calle Hernai, 68 1 aseo accesible en 1&amp;ordf; planta Plazas para minusválidos residentes. 3    Abierto 24 horas   Titularidad: Ayuntamiento de Madrid",0,http://www.madrid.es/sites/v/index.jsp?vgnextchannel=bfa48ab43d6bb410VgnVCM100000171f5a0aRCRD&vgnextoid=d0712c798651c010VgnVCM2000000c205a0aRCRD,"Calle de Hernani, Madrid",https://wikidata.org/entity/Q26833571,79,,,Madrid,https://wikidata.org/entity/Q2807,Community of Madrid,https://wikidata.org/entity/Q5756,28020,2,Cuatro Caminos,https://wikidata.org/entity/Q5824684,6,Tetuán,https://wikidata.org/entity/Q1773540,440843,4477735,40.44817621258857,-3.6976113125092684,915 545 326,
13479,Aparcamiento mixto. José Castán Tobeñas,Plazas: 226 públicas y 43 para residentes  Información sobre accesibilidad:  No tiene escaleras adaptadas No disponde ascensor No disponde de aseos accesible Plazas para minusválidos residentes: 5    Abierto 24 horas   Titularidad: Ayuntamiento de Madrid,0,http://www.madrid.es/sites/v/index.jsp?vgnextchannel=bfa48ab43d6bb410VgnVCM100000171f5a0aRCRD&vgnextoid=35ce15cbed51c010VgnVCM2000000c205a0aRCRD,"Calle del Poeta Joan Maragall, Madrid",https://wikidata.org/entity/Q26810980,57,,,Madrid,https://wikidata.org/entity/Q2807,Community of Madrid,https://wikidata.org/entity/Q5756,28020,3,Castillejos,https://wikidata.org/entity/Q11913212,6,Tetuán,https://wikidata.org/entity/Q1773540,441369,4479549,40.4645483266289,-3.69157198480319,915 707 612,aeuropeos@gmail.com
13465,Aparcamiento mixto. Montalbán,Plazas:   146 Residenciales 130 Rotacionales    Abierto 24 horas    Titularidad:  Ayuntamiento de Madrid   Gestión: Empresa Municipal de Transportes (EMT) (más información),1,http://www.madrid.es/sites/v/index.jsp?vgnextchannel=bfa48ab43d6bb410VgnVCM100000171f5a0aRCRD&vgnextoid=f0967339ae51c010VgnVCM2000000c205a0aRCRD,"Calle de Montalbán, Madrid",https://wikidata.org/entity/Q29903983,4,OT,,Madrid,https://wikidata.org/entity/Q2807,Community of Madrid,https://wikidata.org/entity/Q5756,28014,5,Jerónimos,https://wikidata.org/entity/Q10306766,3,Retiro,https://wikidata.org/entity/Q2002296,441381,4474402,40.4181859174944,-3.69095813503217,,
5517342,Aparcamiento mixto. Orense,Plazas: 129 públicas y 663 para residentes  Información sobre accesibilidad:  1 escalera adaptada No dispone de ascensor 1 aseo accesible Plaza para minusválidos residentes: 5    Abierto 24 horas   Titularidad: Ayuntamiento de Madrid  Gestión: Empresa Municipal de Transportes (EMT) (más información),0,http://www.madrid.es/sites/v/index.jsp?vgnextchannel=bfa48ab43d6bb410VgnVCM100000171f5a0aRCRD&vgnextoid=eee35ed15bb95210VgnVCM2000000c205a0aRCRD,avenida de Brasil,https://wikidata.org/entity/Q27212874,2,,,Madrid,https://wikidata.org/entity/Q2807,Community of Madrid,https://wikidata.org/entity/Q5756,28020,2,Cuatro Caminos,https://wikidata.org/entity/Q5824684,6,Tetuán,https://wikidata.org/entity/Q1773540,441141,4478277,40.4530722916738,-3.6941384720253,,aparcamientos@emtmadrid.es
11544439,Aparcamiento mixto. Plaza de Santo Domingo,"Plazas Totales: 320 plazas,  Plazas motos: 16.",0,http://www.madrid.es/sites/v/index.jsp?vgnextchannel=bfa48ab43d6bb410VgnVCM100000171f5a0aRCRD&vgnextoid=58ec252aa267d710VgnVCM1000001d4a900aRCRD,Plaza de Santo Domingo,https://wikidata.org/entity/Q6080106,,,,Madrid,https://wikidata.org/entity/Q2807,Community of Madrid,https://wikidata.org/entity/Q5756,28013,1,Palacio,https://wikidata.org/entity/Q2136510,1,Centro,https://wikidata.org/entity/Q1763376,439915,4474630,40.42013315230386,-3.7082597874437004,,
13466,Aparcamiento mixto. Plaza Mayor,Plazas: 694  279 Residenciales 415 Rotacionales  Abierto 24 horas  Titularidad : Ayuntamiento de Madrid    Gálibo: 1'85 m,0,http://www.madrid.es/sites/v/index.jsp?vgnextchannel=bfa48ab43d6bb410VgnVCM100000171f5a0aRCRD&vgnextoid=2b1981eb5f51c010VgnVCM2000000c205a0aRCRD,Main Square,https://wikidata.org/entity/Q1123493,1,-1,,Madrid,https://wikidata.org/entity/Q2807,Community of Madrid,https://wikidata.org/entity/Q5756,28012,6,Sol,https://wikidata.org/entity/Q2465181,1,Centro,https://wikidata.org/entity/Q1763376,440027,4474155,40.4158677606471,-3.70689561392158,,
36271,Aparcamiento mixto. Presidente Carmona,Plazas: 127 públicas y 379 para residentes Abierto 24 horas  Titularidad: Ayuntamiento de Madrid  Teléfono: 91 556 62 26,0,http://www.madrid.es/sites/v/index.jsp?vgnextchannel=bfa48ab43d6bb410VgnVCM100000171f5a0aRCRD&vgnextoid=8a412c798651c010VgnVCM2000000c205a0aRCRD,Avenida del General Perón,https://wikidata.org/entity/Q26761632,21,,,Madrid,https://wikidata.org/entity/Q2807,Community of Madrid,https://wikidata.org/entity/Q5756,28020,2,Cuatro Caminos,https://wikidata.org/entity/Q5824684,6,Tetuán,https://wikidata.org/entity/Q1773540,441010,4478216,40.45251614668263,-3.6956837947248724,,
13476,Aparcamiento mixto. Recoletos (cerrado),Plazas: 102 públicas y 289 para residentes  Información sobre accesibilidad:   No tiene escaleras adaptadas 1 ascensor en la salida al Paseo de Recoletos 1 aseo accesible Plaza para minusválidos residentes: 10   Abierto 24 horas   Titularidad : Ayuntamiento de Madrid   Gestión: Empresa Municipal de Transportes (EMT) (más información),0,http://www.madrid.es/sites/v/index.jsp?vgnextchannel=bfa48ab43d6bb410VgnVCM100000171f5a0aRCRD&vgnextoid=283f15cbed51c010VgnVCM2000000c205a0aRCRD,Paseo de Recoletos,https://wikidata.org/entity/Q2550870,4,,,Madrid,https://wikidata.org/entity/Q2807,Community of Madrid,https://wikidata.org/entity/Q5756,28001,1,Recoletos,https://wikidata.org/entity/Q3814551,4,Salamanca,https://wikidata.org/entity/Q1773521,441309,4474759,40.421397488495096,-3.691841269615146,,aparcamientos@emtmadrid.es
24193,Aparcamiento mixto. República Dominicana,Plazas: 209 públicas y 892 para residentes Abierto 24 horas  Titularidad: Ayuntamiento de Madrid,0,http://www.madrid.es/sites/v/index.jsp?vgnextchannel=bfa48ab43d6bb410VgnVCM100000171f5a0aRCRD&vgnextoid=aabe6545f951c010VgnVCM2000000c205a0aRCRD,PLAZA REPUBLICA DOMINICANA,,6,,,Madrid,https://wikidata.org/entity/Q2807,Community of Madrid,https://wikidata.org/entity/Q5756,28016,5,Nueva España,https://wikidata.org/entity/Q10338128,5,Chamartín,https://wikidata.org/entity/Q1766348,442641,4478908,40.4588693818589,-3.67651579058803,,
13515,Aparcamiento mixto. San Germán II (antes General Yagüe),Plazas: 419 públicas y 713 residentes Abierto 24 horas  Titularidad: Ayuntamiento de Madrid,0,http://www.madrid.es/sites/v/index.jsp?vgnextchannel=bfa48ab43d6bb410VgnVCM100000171f5a0aRCRD&vgnextoid=ee9e15cbed51c010VgnVCM2000000c205a0aRCRD,"Calle de Orense, Madrid",https://wikidata.org/entity/Q26761687,48,,,Madrid,https://wikidata.org/entity/Q2807,Community of Madrid,https://wikidata.org/entity/Q5756,28020,3,Castillejos,https://wikidata.org/entity/Q11913212,6,Tetuán,https://wikidata.org/entity/Q1773540,441212,4478646,40.4564090502234,-3.69333344796644,,
7416748,Aparcamiento mixto. Serrano I,Plazas: 307 públicas y 833 para residentes Abierto 24 horas  Titularidad: Ayuntamiento de Madrid,0,http://www.madrid.es/sites/v/index.jsp?vgnextchannel=bfa48ab43d6bb410VgnVCM100000171f5a0aRCRD&vgnextoid=bd61f94ae1d15410VgnVCM2000000c205a0aRCRD,Serrano Street,https://wikidata.org/entity/Q5740879,84,,,Madrid,https://wikidata.org/entity/Q2807,Community of Madrid,https://wikidata.org/entity/Q5756,28006,6,Castellana,https://wikidata.org/entity/Q4781,4,Salamanca,https://wikidata.org/entity/Q1773521,441804,4476037,40.4329452991722,-3.68611338542774,,
7417028,Aparcamiento mixto. Serrano II,Plazas: 379 públicas y 804 para residentes Abierto 24 horas  Titularidad: Ayuntamiento de Madrid,0,http://www.madrid.es/sites/v/index.jsp?vgnextchannel=bfa48ab43d6bb410VgnVCM100000171f5a0aRCRD&vgnextoid=bc096f1c35d15410VgnVCM2000000c205a0aRCRD,Serrano Street,https://wikidata.org/entity/Q5740879,44,,,Madrid,https://wikidata.org/entity/Q2807,Community of Madrid,https://wikidata.org/entity/Q5756,28001,1,Recoletos,https://wikidata.org/entity/Q3814551,4,Salamanca,https://wikidata.org/entity/Q1773521,441599,4475750,40.4303442290635,-3.68850808858792,,
7417052,Aparcamiento mixto. Serrano III,Plazas: 261 públicas y 725 para residentes Abierto 24 horas  Titularidad: Ayuntamiento de Madrid,0,http://www.madrid.es/sites/v/index.jsp?vgnextchannel=bfa48ab43d6bb410VgnVCM100000171f5a0aRCRD&vgnextoid=9a1c6f1c35d15410VgnVCM2000000c205a0aRCRD,Serrano Street,https://wikidata.org/entity/Q5740879,2,,,Madrid,https://wikidata.org/entity/Q2807,Community of Madrid,https://wikidata.org/entity/Q5756,28001,1,Recoletos,https://wikidata.org/entity/Q3814551,4,Salamanca,https://wikidata.org/entity/Q1773521,441497,4475094,40.4244268291578,-3.68965177313431,,
13460,Aparcamiento mixto. Sevilla,Plazas: 649 públicas rotacionales y 74 para residentes Abierto 24 horas Admite Tarjeta BonoRed   Titularidad: Ayuntamiento de Madrid,0,http://www.madrid.es/sites/v/index.jsp?vgnextchannel=bfa48ab43d6bb410VgnVCM100000171f5a0aRCRD&vgnextoid=9dd67339ae51c010VgnVCM2000000c205a0aRCRD,Alcalá Street,https://wikidata.org/entity/Q2424746,17,,,Madrid,https://wikidata.org/entity/Q2807,Community of Madrid,https://wikidata.org/entity/Q5756,28014,6,Sol,https://wikidata.org/entity/Q2465181,1,Centro,https://wikidata.org/entity/Q1763376,440740,4474574,40.41780383567921,-3.6998082261071747,915 219 281,
13458,Aparcamiento mixto. Velázquez - Ayala,Plazas: 443 públicas y 230 para residentes Abierto 24 horas Admite Tarjeta BonoRed  Titularidad: Ayuntamiento de Madrid,0,http://www.madrid.es/sites/v/index.jsp?vgnextchannel=bfa48ab43d6bb410VgnVCM100000171f5a0aRCRD&vgnextoid=8bee15cbed51c010VgnVCM2000000c205a0aRCRD,calle de Velázquez,https://wikidata.org/entity/Q20031523,47,,,Madrid,https://wikidata.org/entity/Q2807,Community of Madrid,https://wikidata.org/entity/Q5756,28001,1,Recoletos,https://wikidata.org/entity/Q3814551,4,Salamanca,https://wikidata.org/entity/Q1773521,441971,4475406,40.4272702030791,-3.68408892366904,,
13457,Aparcamiento mixto. Velázquez - Jorge Juan,Plazas: 548 públicas y 395 para residentes Abierto 24 horas Admite Tarjeta BonoRed  Titularidad: Ayuntamiento de Madrid,1,http://www.madrid.es/sites/v/index.jsp?vgnextchannel=bfa48ab43d6bb410VgnVCM100000171f5a0aRCRD&vgnextoid=d11f15cbed51c010VgnVCM2000000c205a0aRCRD,calle de Velázquez,https://wikidata.org/entity/Q20031523,1,,,Madrid,https://wikidata.org/entity/Q2807,Community of Madrid,https://wikidata.org/entity/Q5756,28001,1,Recoletos,https://wikidata.org/entity/Q3814551,4,Salamanca,https://wikidata.org/entity/Q1773521,441946,4475076,40.4242991698907,-3.68435762446743,,
8087180,Aparcamiento para residentes del Centro Polivalente Barceló,,0,http://www.madrid.es/sites/v/index.jsp?vgnextchannel=bfa48ab43d6bb410VgnVCM100000171f5a0aRCRD&vgnextoid=9826774ac3cdd410VgnVCM2000000c205a0aRCRD,calle de Barceló,https://wikidata.org/entity/Q27051120,6,,,Madrid,https://wikidata.org/entity/Q2807,Community of Madrid,https://wikidata.org/entity/Q5756,28004,4,Justicia,https://wikidata.org/entity/Q1992319,1,Centro,https://wikidata.org/entity/Q1763376,440689,4475392,40.4270579430205,-3.69920590014237,,
67711,Aparcamiento para residentes. Aguilar de Campoo,Plazas: 303 Abierto 24 horas  Titularidad: Ayuntamiento de Madrid,0,http://www.madrid.es/sites/v/index.jsp?vgnextchannel=bfa48ab43d6bb410VgnVCM100000171f5a0aRCRD&vgnextoid=d60868540e41c010VgnVCM2000000c205a0aRCRD,"Calle de Antonio Machado, Madrid",https://wikidata.org/entity/Q28793893,10,,entrada y salida por calle Antonio Machado,Madrid,https://wikidata.org/entity/Q2807,Community of Madrid,https://wikidata.org/entity/Q5756,28035,4,Valdezarza,https://wikidata.org/entity/Q10388728,9,Moncloa-Aravaca,https://wikidata.org/entity/Q2017682,439012,4479586,40.4647124801429,-3.71937440247255,,
13560,Aparcamiento para residentes. Aguilón,Plazas: 271 Abierto 24 horas  Titularidad: Ayuntamiento de Madrid,0,http://www.madrid.es/sites/v/index.jsp?vgnextchannel=bfa48ab43d6bb410VgnVCM100000171f5a0aRCRD&vgnextoid=bc5215cbed51c010VgnVCM2000000c205a0aRCRD,"Paseo de la Chopera, Madrid",https://wikidata.org/entity/Q27044458,27,,,Madrid,https://wikidata.org/entity/Q2807,Community of Madrid,https://wikidata.org/entity/Q5756,28045,3,La Chopera,https://wikidata.org/entity/Q3773750,2,Arganzuela,https://wikidata.org/entity/Q2000929,440537,4471871,40.3953242147226,-3.70066269999703,,
81690,Aparcamiento para residentes. Agustín Lara,"Plazas: 343 Abierto 24 horas  Titularidad: Ayuntamiento de Madrid   La EMT oferta plazas de estacionamiento, en régimen de alquiler de larga duración, con abonos de 1, 3 y 5 años en este aparcamiento. Más información:  http://www.emtmadrid.es/aparcamiento_agustin_lara/index.html",0,http://www.madrid.es/sites/v/index.jsp?vgnextchannel=bfa48ab43d6bb410VgnVCM100000171f5a0aRCRD&vgnextoid=856bc2c6e051c010VgnVCM2000000c205a0aRCRD,calle de Mesón de Paredes,https://wikidata.org/entity/Q5686332,66,,,Madrid,https://wikidata.org/entity/Q2807,Community of Madrid,https://wikidata.org/entity/Q5756,28012,2,Embajadores,https://wikidata.org/entity/Q2449844,1,Centro,https://wikidata.org/entity/Q1763376,440247,4473251,40.4077362146594,-3.70421674570288,,
7439839,Aparcamiento para residentes. Alameda (cerrado),Plazas: 171 Abierto 24 horas  Titularidad: Ayuntamiento de Madrid,0,http://www.madrid.es/sites/v/index.jsp?vgnextchannel=bfa48ab43d6bb410VgnVCM100000171f5a0aRCRD&vgnextoid=5690bf11ca045410VgnVCM1000000b205a0aRCRD,Calle Víctor Lamas,https://wikidata.org/entity/Q5740784,11,,,Madrid,https://wikidata.org/entity/Q2807,Community of Madrid,https://wikidata.org/entity/Q5756,28014,3,Cortes,https://wikidata.org/entity/Q2535637,1,Centro,https://wikidata.org/entity/Q1763376,441131,4473678,40.411641708999,-3.693836597352357,,
24136,Aparcamiento para residentes. Alcalde Sáinz de Baranda,Plazas: 565 Abierto 24 horas  Titularidad: Ayuntamiento de Madrid,0,http://www.madrid.es/sites/v/index.jsp?vgnextchannel=bfa48ab43d6bb410VgnVCM100000171f5a0aRCRD&vgnextoid=80af6545f951c010VgnVCM2000000c205a0aRCRD,"Calle del Alcalde Sáinz de Baranda, Madrid",https://wikidata.org/entity/Q28070977,81,,,Madrid,https://wikidata.org/entity/Q2807,Community of Madrid,https://wikidata.org/entity/Q5756,28007,3,Estrella,https://wikidata.org/entity/Q3773738,3,Retiro,https://wikidata.org/entity/Q2002296,443289,4474255,40.4169949224885,-3.66844857705472,,
17790,Aparcamiento para residentes. Alcazaba,Plazas: 334 Abierto 24 horas  Titularidad: Ayuntamiento de Madrid,0,http://www.madrid.es/sites/v/index.jsp?vgnextchannel=bfa48ab43d6bb410VgnVCM100000171f5a0aRCRD&vgnextoid=f0ee6545f951c010VgnVCM2000000c205a0aRCRD,Sinesio Delgado Street,https://wikidata.org/entity/Q52245452,26,,,Madrid,https://wikidata.org/entity/Q2807,Community of Madrid,https://wikidata.org/entity/Q5756,28029,4,El Pilar,https://wikidata.org/entity/Q3773964,8,Fuencarral-El Pardo,https://wikidata.org/entity/Q656196,440394,4480510,40.4731383570492,-3.70315583932366,,
81696,Aparcamiento para residentes. Alonso Cano,Plazas: 433 Abierto 24 horas  Titularidad: Ayuntamiento de Madrid,0,http://www.madrid.es/sites/v/index.jsp?vgnextchannel=bfa48ab43d6bb410VgnVCM100000171f5a0aRCRD&vgnextoid=fa0dc2c6e051c010VgnVCM2000000c205a0aRCRD,"Calle de José Abascal, Madrid",https://wikidata.org/entity/Q27310549,28,,,Madrid,https://wikidata.org/entity/Q2807,Community of Madrid,https://wikidata.org/entity/Q5756,28003,4,Almagro,https://wikidata.org/entity/Q10954432,7,Chamberí,https://wikidata.org/entity/Q1763370,440836,4476637,40.4382832884019,-3.69758433593285,,
5753573,Aparcamiento para residentes. Andorra II,Plazas: 280 Abierto 24 horas  Titularidad: Ayuntamiento de Madrid,0,http://www.madrid.es/sites/v/index.jsp?vgnextchannel=bfa48ab43d6bb410VgnVCM100000171f5a0aRCRD&vgnextoid=5fae964bd47a9210VgnVCM1000000b205a0aRCRD,calle de Silvano,https://wikidata.org/entity/Q29917316,61,,,Madrid,https://wikidata.org/entity/Q2807,Community of Madrid,https://wikidata.org/entity/Q5756,28043,3,Canillas,https://wikidata.org/entity/Q9694341,16,Hortaleza,https://wikidata.org/entity/Q1928529,445476,4478934,40.4592933474543,-3.64307327470994,,
13562,Aparcamiento para residentes. Antonio Machado,Plazas: 339 Abierto 24 horas  Titularidad: Ayuntamiento de Madrid,0,http://www.madrid.es/sites/v/index.jsp?vgnextchannel=bfa48ab43d6bb410VgnVCM100000171f5a0aRCRD&vgnextoid=f5f215cbed51c010VgnVCM2000000c205a0aRCRD,"Calle de Antonio Machado, Madrid",https://wikidata.org/entity/Q28793893,53,,,Madrid,https://wikidata.org/entity/Q2807,Community of Madrid,https://wikidata.org/entity/Q5756,28035,4,Valdezarza,https://wikidata.org/entity/Q10388728,9,Moncloa-Aravaca,https://wikidata.org/entity/Q2017682,439013,4480042,40.4688249684818,-3.71940862849532,,
13554,Aparcamiento para residentes. Antonio Maura,Plazas: 510 Abierto 24 horas  Titularidad: Ayuntamiento de Madrid,0,http://www.madrid.es/sites/v/index.jsp?vgnextchannel=bfa48ab43d6bb410VgnVCM100000171f5a0aRCRD&vgnextoid=4c1315cbed51c010VgnVCM2000000c205a0aRCRD,"Calle de Antonio Maura, Madrid",https://wikidata.org/entity/Q29566726,14,,,Madrid,https://wikidata.org/entity/Q2807,Community of Madrid,https://wikidata.org/entity/Q5756,28014,5,Jerónimos,https://wikidata.org/entity/Q10306766,3,Retiro,https://wikidata.org/entity/Q2002296,441427,4474201,40.4163744217811,-3.6903956132852,,
24093,Aparcamiento para residentes. Antonio Mena,Plazas: 313 Abierto 24 horas  Titularidad: Ayuntamiento de Madrid,1,http://www.madrid.es/sites/v/index.jsp?vgnextchannel=bfa48ab43d6bb410VgnVCM100000171f5a0aRCRD&vgnextoid=78726545f951c010VgnVCM2000000c205a0aRCRD,Avenida del Doctor García Tapia,https://wikidata.org/entity/Q28935864,119,,,Madrid,https://wikidata.org/entity/Q2807,Community of Madrid,https://wikidata.org/entity/Q5756,28030,3,Marroquina,https://wikidata.org/entity/Q11935636,14,Moratalaz,https://wikidata.org/entity/Q2076109,445535,4473537,40.4106715339171,-3.6419244141850147,,
24096,Aparcamiento para residentes. Arroyo del Olivar,Plazas: 214 Abierto 24 horas  Titularidad: Ayuntamiento de Madrid,0,http://www.madrid.es/sites/v/index.jsp?vgnextchannel=bfa48ab43d6bb410VgnVCM100000171f5a0aRCRD&vgnextoid=73106545f951c010VgnVCM2000000c205a0aRCRD,"Calle del Arroyo del Olivar, Madrid",https://wikidata.org/entity/Q29561517,108,,,Madrid,https://wikidata.org/entity/Q2807,Community of Madrid,https://wikidata.org/entity/Q5756,28018,3,Palomeras Bajas,https://wikidata.org/entity/Q10343902,13,Puente de Vallecas,https://wikidata.org/entity/Q2003054,444221,4471260,40.390072718009264,-3.65720992196733,,
13536,Aparcamiento para residentes. Arroyo Media Legua,Plazas: 285 Abierto 24 horas  Titularidad: Ayuntamiento de Madrid,0,http://www.madrid.es/sites/v/index.jsp?vgnextchannel=bfa48ab43d6bb410VgnVCM100000171f5a0aRCRD&vgnextoid=924315cbed51c010VgnVCM2000000c205a0aRCRD,"Calle Arroyo de la Media Legua, Madrid",https://wikidata.org/entity/Q28935853,48,,,Madrid,https://wikidata.org/entity/Q2807,Community of Madrid,https://wikidata.org/entity/Q5756,28030,4,Media Legua,https://wikidata.org/entity/Q9031035,14,Moratalaz,https://wikidata.org/entity/Q2076109,444341,4473470,40.40999547047031,-3.655986242152849,,
13626,Aparcamiento para residentes. Augusto González Besada,Plazas: 275 Abierto 24 horas  Titularidad: Ayuntamiento de Madrid,0,http://www.madrid.es/sites/v/index.jsp?vgnextchannel=bfa48ab43d6bb410VgnVCM100000171f5a0aRCRD&vgnextoid=3f8315cbed51c010VgnVCM2000000c205a0aRCRD,Avenida de Moratalaz,https://wikidata.org/entity/Q104778384,183,,,Madrid,https://wikidata.org/entity/Q2807,Community of Madrid,https://wikidata.org/entity/Q5756,28030,3,Marroquina,https://wikidata.org/entity/Q11935636,14,Moratalaz,https://wikidata.org/entity/Q2076109,445369,4473342,40.4089104705604,-3.64386362951559,,
17449,Aparcamiento para residentes. Avenida de las Águilas (antes General Fanjul),Plazas: 574 Abierto 24 horas  Titularidad: Ayuntamiento de Madrid,0,http://www.madrid.es/sites/v/index.jsp?vgnextchannel=bfa48ab43d6bb410VgnVCM100000171f5a0aRCRD&vgnextoid=470f6545f951c010VgnVCM2000000c205a0aRCRD,"Avenida de Las Águilas, Madrid",https://wikidata.org/entity/Q29405114,144,,,Madrid,https://wikidata.org/entity/Q2807,Community of Madrid,https://wikidata.org/entity/Q5756,28044,7,Las Águilas,https://wikidata.org/entity/Q5971372,10,Latina,https://wikidata.org/entity/Q794954,433535,4470282,40.3804832805408,-3.78300236990473,,
170742,Aparcamiento para residentes. Azuaga,Plazas: 261 Abierto 24 horas  Titularidad: Ayuntamiento de Madrid,1,http://www.madrid.es/sites/v/index.jsp?vgnextchannel=bfa48ab43d6bb410VgnVCM100000171f5a0aRCRD&vgnextoid=f8a4ff632081c010VgnVCM1000000b205a0aRCRD,"Calle de San Restituto, Madrid",https://wikidata.org/entity/Q28938015,33,,,Madrid,https://wikidata.org/entity/Q2807,Community of Madrid,https://wikidata.org/entity/Q5756,28039,4,Valdezarza,https://wikidata.org/entity/Q10388728,9,Moncloa-Aravaca,https://wikidata.org/entity/Q2017682,439657,4479590,40.464795265151,-3.71176345766358,,
13633,Aparcamiento para residentes. Baviera,Plazas: 208 Abierto 24 horas  Titularidad: Ayuntamiento de Madrid,1,http://www.madrid.es/sites/v/index.jsp?vgnextchannel=bfa48ab43d6bb410VgnVCM100000171f5a0aRCRD&vgnextoid=f09015cbed51c010VgnVCM2000000c205a0aRCRD,"Avenida de América, Madrid",https://wikidata.org/entity/Q5686040,58,,,Madrid,https://wikidata.org/entity/Q2807,Community of Madrid,https://wikidata.org/entity/Q5756,28028,4,La Guindalera,https://wikidata.org/entity/Q3814559,4,Salamanca,https://wikidata.org/entity/Q1773521,443767,4477179,40.4433686262101,-3.66308052190316,,
21182,Aparcamiento para residentes. Blasco de Garay,Plazas: 461 Abierto 24 horas  Titularidad: Ayuntamiento de Madrid,0,http://www.madrid.es/sites/v/index.jsp?vgnextchannel=bfa48ab43d6bb410VgnVCM100000171f5a0aRCRD&vgnextoid=c9306545f951c010VgnVCM2000000c205a0aRCRD,Calle de Meléndez Valdés,https://wikidata.org/entity/Q27031533,32,,,Madrid,https://wikidata.org/entity/Q2807,Community of Madrid,https://wikidata.org/entity/Q5756,28015,1,Gaztambide,https://wikidata.org/entity/Q10288587,7,Chamberí,https://wikidata.org/entity/Q1763370,439634,4476097,40.4333313523738,-3.71170388375829,,
13495,Aparcamiento para residentes. Boston,Plazas: 353 Abierto 24 horas  Titularidad: Ayuntamiento de Madrid,0,http://www.madrid.es/sites/v/index.jsp?vgnextchannel=bfa48ab43d6bb410VgnVCM100000171f5a0aRCRD&vgnextoid=dbd315cbed51c010VgnVCM2000000c205a0aRCRD,CALLE BOSTON,,1,,,Madrid,https://wikidata.org/entity/Q2807,Community of Madrid,https://wikidata.org/entity/Q5756,28028,4,La Guindalera,https://wikidata.org/entity/Q3814559,4,Salamanca,https://wikidata.org/entity/Q1773521,443545,4476510,40.43732544918828,-3.6656301287112916,,
13530,Aparcamiento para residentes. Bravo Murillo,Plazas: 629 Abierto 24 horas  Titularidad: Ayuntamiento de Madrid  Teléfono:   618 263 474,0,http://www.madrid.es/sites/v/index.jsp?vgnextchannel=bfa48ab43d6bb410VgnVCM100000171f5a0aRCRD&vgnextoid=220415cbed51c010VgnVCM2000000c205a0aRCRD,Calle de Bravo Murillo,https://wikidata.org/entity/Q5740815,49,,,Madrid,https://wikidata.org/entity/Q2807,Community of Madrid,https://wikidata.org/entity/Q5756,28003,6,Vallehermoso,https://wikidata.org/entity/Q6122685,7,Chamberí,https://wikidata.org/entity/Q1763370,440266,4476769,40.4394326885612,-3.70431921200787,,
13564,Aparcamiento para residentes. Bristol,Plazas: 317 Abierto 24 horas  Titularidad: Ayuntamiento de Madrid,0,http://www.madrid.es/sites/v/index.jsp?vgnextchannel=bfa48ab43d6bb410VgnVCM100000171f5a0aRCRD&vgnextoid=ce4415cbed51c010VgnVCM2000000c205a0aRCRD,CALLE BRISTOL,,2,,,Madrid,https://wikidata.org/entity/Q2807,Community of Madrid,https://wikidata.org/entity/Q5756,28028,4,La Guindalera,https://wikidata.org/entity/Q3814559,4,Salamanca,https://wikidata.org/entity/Q1773521,443838,4476686,40.438926762097445,-3.6621985089251137,,
13565,Aparcamiento para residentes. Bruselas,Plazas: 224 Abierto 24 horas  Titularidad: Ayuntamiento de Madrid,0,http://www.madrid.es/sites/v/index.jsp?vgnextchannel=bfa48ab43d6bb410VgnVCM100000171f5a0aRCRD&vgnextoid=47b015cbed51c010VgnVCM2000000c205a0aRCRD,avenida de Bruselas,https://wikidata.org/entity/Q118710890,74,,,Madrid,https://wikidata.org/entity/Q2807,Community of Madrid,https://wikidata.org/entity/Q5756,28028,4,La Guindalera,https://wikidata.org/entity/Q3814559,4,Salamanca,https://wikidata.org/entity/Q1773521,443722,4477090,40.4425620205734,-3.66360229625587,,
183737,Aparcamiento para residentes. Cabestreros,Plazas: 360 Abierto 24 horas  Titularidad: Ayuntamiento de Madrid,0,http://www.madrid.es/sites/v/index.jsp?vgnextchannel=bfa48ab43d6bb410VgnVCM100000171f5a0aRCRD&vgnextoid=f106bdc85c01c010VgnVCM2000000c205a0aRCRD,calle de Mesón de Paredes,https://wikidata.org/entity/Q5686332,37,,,Madrid,https://wikidata.org/entity/Q2807,Community of Madrid,https://wikidata.org/entity/Q5756,28012,2,Embajadores,https://wikidata.org/entity/Q2449844,1,Centro,https://wikidata.org/entity/Q1763376,440316,4473483,40.4098262170267,-3.70341928254916,,
13539,Aparcamiento para residentes. Camino de los Vinateros I,Plazas: 249 Abierto 24 horas  Titularidad: Ayuntamiento de Madrid,0,http://www.madrid.es/sites/v/index.jsp?vgnextchannel=bfa48ab43d6bb410VgnVCM100000171f5a0aRCRD&vgnextoid=b1c415cbed51c010VgnVCM2000000c205a0aRCRD,Calle Camino de los Vinateros,https://wikidata.org/entity/Q28935892,159,,,Madrid,https://wikidata.org/entity/Q2807,Community of Madrid,https://wikidata.org/entity/Q5756,28030,6,Vinateros,https://wikidata.org/entity/Q10391533,14,Moratalaz,https://wikidata.org/entity/Q2076109,445506,4473061,40.4063803140088,-3.642216978933147,,
13538,Aparcamiento para residentes. Camino de los Vinateros II (El Torito),Plazas: 477 Abierto 24 horas  Titularidad: Ayuntamiento de Madrid,0,http://www.madrid.es/sites/v/index.jsp?vgnextchannel=bfa48ab43d6bb410VgnVCM100000171f5a0aRCRD&vgnextoid=08e415cbed51c010VgnVCM2000000c205a0aRCRD,Calle Camino de los Vinateros,https://wikidata.org/entity/Q28935892,120,,,Madrid,https://wikidata.org/entity/Q2807,Community of Madrid,https://wikidata.org/entity/Q5756,28030,6,Vinateros,https://wikidata.org/entity/Q10391533,14,Moratalaz,https://wikidata.org/entity/Q2076109,445178,4473138,40.4070586556589,-3.64609602112553,,
81710,Aparcamiento para residentes. Canal,Plazas: 112 Abierto 24 horas  Titularidad: Ayuntamiento de Madrid  Teléfonos: 618 856 882                    604 288 125,0,http://www.madrid.es/sites/v/index.jsp?vgnextchannel=bfa48ab43d6bb410VgnVCM100000171f5a0aRCRD&vgnextoid=78dbc2c6e051c010VgnVCM2000000c205a0aRCRD,calle de Cea Bermúdez,https://wikidata.org/entity/Q26791743,1,,,Madrid,https://wikidata.org/entity/Q2807,Community of Madrid,https://wikidata.org/entity/Q5756,28003,2,Arapiles,https://wikidata.org/entity/Q10856744,7,Chamberí,https://wikidata.org/entity/Q1763370,440157,4476680,40.4386229816115,-3.70560050313099,,
81733,Aparcamiento para residentes. Castelló,Plazas: 303 Abierto 24 horas  Titularidad: Ayuntamiento de Madrid,0,http://www.madrid.es/sites/v/index.jsp?vgnextchannel=bfa48ab43d6bb410VgnVCM100000171f5a0aRCRD&vgnextoid=cefbc2c6e051c010VgnVCM2000000c205a0aRCRD,"Calle de Diego de León, Madrid",https://wikidata.org/entity/Q28059485,29,,,Madrid,https://wikidata.org/entity/Q2807,Community of Madrid,https://wikidata.org/entity/Q5756,28006,6,Castellana,https://wikidata.org/entity/Q4781,4,Salamanca,https://wikidata.org/entity/Q1773521,442203,4476252,40.434908578522,-3.68143698282303,,
13533,Aparcamiento para residentes. Cañada,Plazas: 288 Abierto 24 horas  Titularidad: Ayuntamiento de Madrid,0,http://www.madrid.es/sites/v/index.jsp?vgnextchannel=bfa48ab43d6bb410VgnVCM100000171f5a0aRCRD&vgnextoid=a43515cbed51c010VgnVCM2000000c205a0aRCRD,CALLE CAÑADA,,27,,,Madrid,https://wikidata.org/entity/Q2807,Community of Madrid,https://wikidata.org/entity/Q5756,28030,6,Vinateros,https://wikidata.org/entity/Q10391533,14,Moratalaz,https://wikidata.org/entity/Q2076109,445301,4472911,40.4050195561753,-3.64462726953091,,
13636,Aparcamiento para residentes. Chamberí,Plazas: 690 Abierto 24 horas  Titularidad: Ayuntamiento de Madrid,0,http://www.madrid.es/sites/v/index.jsp?vgnextchannel=bfa48ab43d6bb410VgnVCM100000171f5a0aRCRD&vgnextoid=fb247339ae51c010VgnVCM2000000c205a0aRCRD,"Calle de Santa Engracia, Madrid",https://wikidata.org/entity/Q26728109,34,,,Madrid,https://wikidata.org/entity/Q2807,Community of Madrid,https://wikidata.org/entity/Q5756,28010,4,Almagro,https://wikidata.org/entity/Q10954432,7,Chamberí,https://wikidata.org/entity/Q1763370,440849,4475951,40.4321041641281,-3.69736547125222,,
13568,Aparcamiento para residentes. Cidamón,Plazas: 343 Abierto 24 horas  Titularidad: Ayuntamiento de Madrid,0,http://www.madrid.es/sites/v/index.jsp?vgnextchannel=bfa48ab43d6bb410VgnVCM100000171f5a0aRCRD&vgnextoid=418515cbed51c010VgnVCM2000000c205a0aRCRD,CALLE ABALOS,,4,,,Madrid,https://wikidata.org/entity/Q2807,Community of Madrid,https://wikidata.org/entity/Q5756,28043,6,San Juan Bautista,https://wikidata.org/entity/Q165609,15,Ciudad Lineal,https://wikidata.org/entity/Q1763694,444371,4477936,40.4502275088023,-3.65601940414286,,
13503,Aparcamiento para residentes. Clara del Rey,Plazas: 179 Abierto 24 horas  Titularidad: Ayuntamiento de Madrid,0,http://www.madrid.es/sites/v/index.jsp?vgnextchannel=bfa48ab43d6bb410VgnVCM100000171f5a0aRCRD&vgnextoid=97a515cbed51c010VgnVCM2000000c205a0aRCRD,Clara del Rey Street,https://wikidata.org/entity/Q28055037,49,,,Madrid,https://wikidata.org/entity/Q2807,Community of Madrid,https://wikidata.org/entity/Q5756,28002,2,Prosperidad,https://wikidata.org/entity/Q4776,5,Chamartín,https://wikidata.org/entity/Q1766348,443287,4477242,40.4439002303705,-3.66873934705878,,
13571,Aparcamiento para residentes. Condado de Treviño,Plazas: 195 Abierto 24 horas  Titularidad: Ayuntamiento de Madrid,0,http://www.madrid.es/sites/v/index.jsp?vgnextchannel=bfa48ab43d6bb410VgnVCM100000171f5a0aRCRD&vgnextoid=34f515cbed51c010VgnVCM2000000c205a0aRCRD,CALLE CONDADO DE TREVIÑO,,31,,,Madrid,https://wikidata.org/entity/Q2807,Community of Madrid,https://wikidata.org/entity/Q5756,28033,9,Costillares,https://wikidata.org/entity/Q331385,15,Ciudad Lineal,https://wikidata.org/entity/Q1763694,443249,4481255,40.4800505171255,-3.66955150726522,,
24101,Aparcamiento para residentes. Conde de Casal / Mediterraneo,Plazas: 1650 Abierto 24 horas  Titularidad: Ayuntamiento de Madrid,0,http://www.madrid.es/sites/v/index.jsp?vgnextchannel=bfa48ab43d6bb410VgnVCM100000171f5a0aRCRD&vgnextoid=549e6545f951c010VgnVCM2000000c205a0aRCRD,avenida del Mediterráneo,https://wikidata.org/entity/Q57739480,28,,,Madrid,https://wikidata.org/entity/Q2807,Community of Madrid,https://wikidata.org/entity/Q5756,28007,1,Pacífico,https://wikidata.org/entity/Q3773753,3,Retiro,https://wikidata.org/entity/Q2002296,442855,4473143,40.4069414961023,-3.67346590971438,,
13504,Aparcamiento para residentes. Corazón de María I,Plazas: 166 Abierto 24 horas  Titularidad: Ayuntamiento de Madrid,0,http://www.madrid.es/sites/v/index.jsp?vgnextchannel=bfa48ab43d6bb410VgnVCM100000171f5a0aRCRD&vgnextoid=8a1615cbed51c010VgnVCM2000000c205a0aRCRD,"Calle del Corazón de María, Madrid",https://wikidata.org/entity/Q28940875,6,,,Madrid,https://wikidata.org/entity/Q2807,Community of Madrid,https://wikidata.org/entity/Q5756,28002,2,Prosperidad,https://wikidata.org/entity/Q4776,5,Chamartín,https://wikidata.org/entity/Q1766348,443097,4476862,40.440466332376,-3.67094880753214,,
24103,Aparcamiento para residentes. Corazón de María II,Plazas: 327 públicas y 750 para residentes  Informacion sobre accesibilidad:  No tiene escalera adaptada No tiene ascensor de salida a calle 2 aseos accesibles (1&amp;ordf; planta)  Plazas para minusválidos residentes: 6    Abierto 24 horas   Titularidad: Ayuntamiento de Madrid,0,http://www.madrid.es/sites/v/index.jsp?vgnextchannel=bfa48ab43d6bb410VgnVCM100000171f5a0aRCRD&vgnextoid=b74e6545f951c010VgnVCM2000000c205a0aRCRD,"Calle del Corazón de María, Madrid",https://wikidata.org/entity/Q28940875,72,,,Madrid,https://wikidata.org/entity/Q2807,Community of Madrid,https://wikidata.org/entity/Q5756,28002,2,Prosperidad,https://wikidata.org/entity/Q4776,5,Chamartín,https://wikidata.org/entity/Q1766348,443433,4477298,40.4444174410574,-3.6670287481035015,915 563 165 / 915 195 280,aparcamientocorazondemaria@grupocogesa.es
13535,Aparcamiento para residentes. Darwin,,0,http://www.madrid.es/sites/v/index.jsp?vgnextchannel=bfa48ab43d6bb410VgnVCM100000171f5a0aRCRD&vgnextoid=dca27339ae51c010VgnVCM2000000c205a0aRCRD,Avenida de Moratalaz,https://wikidata.org/entity/Q104778384,58,,,Madrid,https://wikidata.org/entity/Q2807,Community of Madrid,https://wikidata.org/entity/Q5756,28030,5,Fontarrón,https://wikidata.org/entity/Q10283284,14,Moratalaz,https://wikidata.org/entity/Q2076109,444527,4472985,40.405638665853,-3.65375539091826,S/T,
183760,Aparcamiento para residentes. Doce de Octubre,Plazas: 694 Abierto 24 horas  Titularidad: Ayuntamiento de Madrid,1,http://www.madrid.es/sites/v/index.jsp?vgnextchannel=bfa48ab43d6bb410VgnVCM100000171f5a0aRCRD&vgnextoid=4826bdc85c01c010VgnVCM2000000c205a0aRCRD,"Calle del Alcalde Sáinz de Baranda, Madrid",https://wikidata.org/entity/Q28070977,,,,Madrid,https://wikidata.org/entity/Q2807,Community of Madrid,https://wikidata.org/entity/Q5756,28009,4,Ibiza,https://wikidata.org/entity/Q15249910,3,Retiro,https://wikidata.org/entity/Q2002296,442633,4474354,40.4178437921393,-3.67619550529124,S/T,
13551,Aparcamiento para residentes. Doctor Laguna,Plazas: 537 Abierto 24 horas  Titularidad: Ayuntamiento de Madrid,0,http://www.madrid.es/sites/v/index.jsp?vgnextchannel=bfa48ab43d6bb410VgnVCM100000171f5a0aRCRD&vgnextoid=b7f57339ae51c010VgnVCM2000000c205a0aRCRD,calle del Doce de Octubre,https://wikidata.org/entity/Q118724987,28,,,Madrid,https://wikidata.org/entity/Q2807,Community of Madrid,https://wikidata.org/entity/Q5756,28009,6,Niño Jesús,https://wikidata.org/entity/Q3773746,3,Retiro,https://wikidata.org/entity/Q2002296,442856,4474152,40.416038617548956,-3.673543967928384,T/D,
4831001,Aparcamiento para residentes. Elvira,Plazas: 192 Abierto 24 horas  Titularidad: Ayuntamiento de Madrid  Gestión: Empresa Municipal de Transportes (EMT) (más información),0,http://www.madrid.es/sites/v/index.jsp?vgnextchannel=bfa48ab43d6bb410VgnVCM100000171f5a0aRCRD&vgnextoid=ca1cec05bd2a8110VgnVCM2000000c205a0aRCRD,CALLE ELVIRA,,36,,,Madrid,https://wikidata.org/entity/Q2807,Community of Madrid,https://wikidata.org/entity/Q5756,28028,3,Fuente del Berro,https://wikidata.org/entity/Q3814564,4,Salamanca,https://wikidata.org/entity/Q1773521,443523,4474708,40.4210921187441,-3.66573849295254,,
24108,Aparcamiento para residentes. Esteban Villegas,Plazas: 858 Abierto 24 horas  Titularidad: Ayuntamiento de Madrid,0,http://www.madrid.es/sites/v/index.jsp?vgnextchannel=bfa48ab43d6bb410VgnVCM100000171f5a0aRCRD&vgnextoid=e8b16545f951c010VgnVCM2000000c205a0aRCRD,"Calle del Poeta Esteban de Villegas, Madrid",https://wikidata.org/entity/Q52382171,4,,,Madrid,https://wikidata.org/entity/Q2807,Community of Madrid,https://wikidata.org/entity/Q5756,28014,5,Jerónimos,https://wikidata.org/entity/Q10306766,3,Retiro,https://wikidata.org/entity/Q2002296,441970,4473312,40.40840893273142,-3.683916231954491,,
4831271,Aparcamiento para residentes. Francisco Altimiras,Plazas: 59 Abierto 24 horas  Titularidad: Ayuntamiento de Madrid  Gestión: Empresa Municipal de Transportes (EMT) (más información),0,http://www.madrid.es/sites/v/index.jsp?vgnextchannel=bfa48ab43d6bb410VgnVCM100000171f5a0aRCRD&vgnextoid=c0055b87103a8110VgnVCM2000000c205a0aRCRD,calle de Francisco Altimiras,https://wikidata.org/entity/Q118669974,2,,SEMIESQUINA CON LA AV. DE LOS TOREROS,Madrid,https://wikidata.org/entity/Q2807,Community of Madrid,https://wikidata.org/entity/Q5756,28028,4,La Guindalera,https://wikidata.org/entity/Q3814559,4,Salamanca,https://wikidata.org/entity/Q1773521,443720,4476105,40.4336887886822,-3.663538450106072,,
13634,Aparcamiento para residentes. Francos Rodríguez,Plazas: 296 Abierto 24 horas  Titularidad: Ayuntamiento de Madrid,1,http://www.madrid.es/sites/v/index.jsp?vgnextchannel=bfa48ab43d6bb410VgnVCM100000171f5a0aRCRD&vgnextoid=a99715cbed51c010VgnVCM2000000c205a0aRCRD,CALLE NUMANCIA,,63,,,Madrid,https://wikidata.org/entity/Q2807,Community of Madrid,https://wikidata.org/entity/Q5756,28039,1,Bellas Vistas,https://wikidata.org/entity/Q11908929,6,Tetuán,https://wikidata.org/entity/Q1773540,439795,4478705,40.456831249177,-3.71005050591214,,
24119,Aparcamiento para residentes. Galileo,Plazas: 527 Abierto 24 horas  Titularidad: Ayuntamiento de Madrid,0,http://www.madrid.es/sites/v/index.jsp?vgnextchannel=bfa48ab43d6bb410VgnVCM100000171f5a0aRCRD&vgnextoid=03d06545f951c010VgnVCM2000000c205a0aRCRD,calle de Blasco de Garay,https://wikidata.org/entity/Q26831099,38,,,Madrid,https://wikidata.org/entity/Q2807,Community of Madrid,https://wikidata.org/entity/Q5756,28015,2,Arapiles,https://wikidata.org/entity/Q10856744,7,Chamberí,https://wikidata.org/entity/Q1763370,439660,4476130,40.4336318167522,-3.71140097593995,,
13525,Aparcamiento para residentes. García Escámez,Plazas: 260 Abierto 24 horas  Titularidad: Ayuntamiento de Madrid,0,http://www.madrid.es/sites/v/index.jsp?vgnextchannel=bfa48ab43d6bb410VgnVCM100000171f5a0aRCRD&vgnextoid=46e715cbed51c010VgnVCM2000000c205a0aRCRD,calle de Anselmo Lorenzo,https://wikidata.org/entity/Q29405131,11,,,Madrid,https://wikidata.org/entity/Q2807,Community of Madrid,https://wikidata.org/entity/Q5756,28044,7,Las Águilas,https://wikidata.org/entity/Q5971372,10,Latina,https://wikidata.org/entity/Q794954,434687,4470444,40.3820357799705,-3.7694517822779,,
13534,Aparcamiento para residentes. García Tapia,Plazas: 252 Abierto 24 horas  Titularidad: Ayuntamiento de Madrid,0,http://www.madrid.es/sites/v/index.jsp?vgnextchannel=bfa48ab43d6bb410VgnVCM100000171f5a0aRCRD&vgnextoid=663215cbed51c010VgnVCM2000000c205a0aRCRD,Avenida del Doctor García Tapia,https://wikidata.org/entity/Q28935864,51,,,Madrid,https://wikidata.org/entity/Q2807,Community of Madrid,https://wikidata.org/entity/Q5756,28030,3,Marroquina,https://wikidata.org/entity/Q11935636,14,Moratalaz,https://wikidata.org/entity/Q2076109,445240,4473666,40.4118131755341,-3.64541031210654,,
81746,Aparcamiento para residentes. General Gallegos,Plazas: 101 Abierto 24 horas  Titularidad: Ayuntamiento de Madrid,0,http://www.madrid.es/sites/v/index.jsp?vgnextchannel=bfa48ab43d6bb410VgnVCM100000171f5a0aRCRD&vgnextoid=34adc2c6e051c010VgnVCM2000000c205a0aRCRD,"Calle del Padre Damián, Madrid",https://wikidata.org/entity/Q28740210,39,,,Madrid,https://wikidata.org/entity/Q2807,Community of Madrid,https://wikidata.org/entity/Q5756,28036,5,Nueva España,https://wikidata.org/entity/Q10338128,5,Chamartín,https://wikidata.org/entity/Q1766348,441874,4479182,40.46128190009474,-3.685586569654305,,
24120,Aparcamiento para residentes. General Lacy,Plazas: 663 Abierto 24 horas  Titularidad: Ayuntamiento de madrid,0,http://www.madrid.es/sites/v/index.jsp?vgnextchannel=bfa48ab43d6bb410VgnVCM100000171f5a0aRCRD&vgnextoid=59f06545f951c010VgnVCM2000000c205a0aRCRD,"Calle del General Lacy, Madrid",https://wikidata.org/entity/Q27243347,2,,ENTRE C/ ÁNCORA Y C/ MÉNDEZ ÁLVARO,Madrid,https://wikidata.org/entity/Q2807,Community of Madrid,https://wikidata.org/entity/Q5756,28045,6,Palos de la Frontera,https://wikidata.org/entity/Q521009,2,Arganzuela,https://wikidata.org/entity/Q2000929,441393,4472724,40.4030667634025,-3.69065809480978,,
13522,Aparcamiento para residentes. Goya I,Plazas: 668 Abierto 24 horas  Titularidad: Ayuntamiento de Madrid,0,http://www.madrid.es/sites/v/index.jsp?vgnextchannel=bfa48ab43d6bb410VgnVCM100000171f5a0aRCRD&vgnextoid=49587339ae51c010VgnVCM2000000c205a0aRCRD,Calle de Goya,https://wikidata.org/entity/Q28015873,92,,,Madrid,https://wikidata.org/entity/Q2807,Community of Madrid,https://wikidata.org/entity/Q5756,28009,2,Goya,https://wikidata.org/entity/Q3814578,4,Salamanca,https://wikidata.org/entity/Q1773521,443020,4475098,40.424572633502564,-3.6717032128063,,
24121,Aparcamiento para residentes. Guadalete,Plazas: 290 Abierto 24 horas  Titularidad: Ayuntamiento de Madrid,0,http://www.madrid.es/sites/v/index.jsp?vgnextchannel=bfa48ab43d6bb410VgnVCM100000171f5a0aRCRD&vgnextoid=af116545f951c010VgnVCM2000000c205a0aRCRD,calle Guadalete,https://wikidata.org/entity/Q119720955,12,,,Madrid,https://wikidata.org/entity/Q2807,Community of Madrid,https://wikidata.org/entity/Q5756,28019,1,Comillas,https://wikidata.org/entity/Q955844,11,Carabanchel,https://wikidata.org/entity/Q1001991,439330,4471202,40.3892153292086,-3.71482104742718,,
13615,Aparcamiento para residentes. Gómez Ulla,Plazas: 191 Abierto 24 horas  Titularidad: Ayuntamiento de Madrid,0,http://www.madrid.es/sites/v/index.jsp?vgnextchannel=bfa48ab43d6bb410VgnVCM100000171f5a0aRCRD&vgnextoid=c3b615cbed51c010VgnVCM2000000c205a0aRCRD,"Calle del Doctor Gómez Ulla, Madrid",https://wikidata.org/entity/Q29053346,11,,LATERAL PARQUE EVA DUARTE DE PERÓN,Madrid,https://wikidata.org/entity/Q2807,Community of Madrid,https://wikidata.org/entity/Q5756,28028,4,La Guindalera,https://wikidata.org/entity/Q3814559,4,Salamanca,https://wikidata.org/entity/Q1773521,443354,4475703,40.43003872255172,-3.667817175542646,,
81748,Aparcamiento para residentes. Islas Filipinas,Plazas: 397. Abierto 24 horas.  Titularidad: Ayuntamiento de Madrid.,0,http://www.madrid.es/sites/v/index.jsp?vgnextchannel=bfa48ab43d6bb410VgnVCM100000171f5a0aRCRD&vgnextoid=5ebcc2c6e051c010VgnVCM2000000c205a0aRCRD,calle de Cea Bermúdez,https://wikidata.org/entity/Q26791743,49,,,Madrid,https://wikidata.org/entity/Q2807,Community of Madrid,https://wikidata.org/entity/Q5756,28003,1,Gaztambide,https://wikidata.org/entity/Q10288587,7,Chamberí,https://wikidata.org/entity/Q1763370,439387,4476727,40.438987934763,-3.71467601723796,,
13546,Aparcamiento para residentes. Jacinto Verdaguer,Plazas: 545 Abierto 24 horas  Titularidad: Ayuntamiento de Madrid,0,http://www.madrid.es/sites/v/index.jsp?vgnextchannel=bfa48ab43d6bb410VgnVCM100000171f5a0aRCRD&vgnextoid=2f397339ae51c010VgnVCM2000000c205a0aRCRD,CALLE JACINTO VERDAGUER,,25,-4,,Madrid,https://wikidata.org/entity/Q2807,Community of Madrid,https://wikidata.org/entity/Q5756,28019,2,Opañel,https://wikidata.org/entity/Q3813756,11,Carabanchel,https://wikidata.org/entity/Q1001991,438999,4471862,40.3951283273511,-3.71878014908902,,
13529,Aparcamiento para residentes. Joaquín María López,Plazas: 464 Abierto 24 horas  Titularidad: Ayuntamiento de Madrid,0,http://www.madrid.es/sites/v/index.jsp?vgnextchannel=bfa48ab43d6bb410VgnVCM100000171f5a0aRCRD&vgnextoid=75697339ae51c010VgnVCM2000000c205a0aRCRD,calle de Joaquín María López,https://wikidata.org/entity/Q27243136,39,,,Madrid,https://wikidata.org/entity/Q2807,Community of Madrid,https://wikidata.org/entity/Q5756,28015,1,Gaztambide,https://wikidata.org/entity/Q10288587,7,Chamberí,https://wikidata.org/entity/Q1763370,439414,4476552,40.4374098846186,-3.71434270556613,,
63334,Aparcamiento para residentes. Josep Pla,Plazas: 239 Abierto 24 horas  Titularidad: Ayuntamiento de Madrid,0,http://www.madrid.es/sites/v/index.jsp?vgnextchannel=bfa48ab43d6bb410VgnVCM100000171f5a0aRCRD&vgnextoid=d70a946be351c010VgnVCM2000000c205a0aRCRD,calle de López de Hoyos,https://wikidata.org/entity/Q27043844,57,,,Madrid,https://wikidata.org/entity/Q2807,Community of Madrid,https://wikidata.org/entity/Q5756,28002,3,Ciudad Jardín,https://wikidata.org/entity/Q3773744,5,Chamartín,https://wikidata.org/entity/Q1766348,442549,4477052,40.4421417450308,-3.67742780223251,,
7471768,Aparcamiento para residentes. José Abascal,Plazas: 126 Abierto 24 horas  Titularidad: Ayuntamiento de Madrid,0,http://www.madrid.es/sites/v/index.jsp?vgnextchannel=bfa48ab43d6bb410VgnVCM100000171f5a0aRCRD&vgnextoid=7ea46cd2546d5410VgnVCM2000000c205a0aRCRD,"Calle de José Abascal, Madrid",https://wikidata.org/entity/Q27310549,54,,,Madrid,https://wikidata.org/entity/Q2807,Community of Madrid,https://wikidata.org/entity/Q5756,28003,4,Almagro,https://wikidata.org/entity/Q10954432,7,Chamberí,https://wikidata.org/entity/Q1763370,441212,4476607,40.4380386607844,-3.69314664084057,,
13526,Aparcamiento para residentes. José de Cadalso,Plazas: 259 Abierto 24 horas  Titularidad: Ayuntamiento de Madrid,0,http://www.madrid.es/sites/v/index.jsp?vgnextchannel=bfa48ab43d6bb410VgnVCM100000171f5a0aRCRD&vgnextoid=cb897339ae51c010VgnVCM2000000c205a0aRCRD,"Calle de Soledad Cazorla, Madrid",https://wikidata.org/entity/Q29405102,51,-1,,Madrid,https://wikidata.org/entity/Q2807,Community of Madrid,https://wikidata.org/entity/Q5756,28044,7,Las Águilas,https://wikidata.org/entity/Q5971372,10,Latina,https://wikidata.org/entity/Q794954,434776,4469790,40.37614333918351,-3.7683293552234054,,
13579,Aparcamiento para residentes. Juan de Vera,Plazas: 512 Abierto 24 horas  Titularidad: Ayuntamiento de Madrid,0,http://www.madrid.es/sites/v/index.jsp?vgnextchannel=bfa48ab43d6bb410VgnVCM100000171f5a0aRCRD&vgnextoid=4eba7339ae51c010VgnVCM2000000c205a0aRCRD,calle de Juan de Vera,https://wikidata.org/entity/Q118652458,15,,,Madrid,https://wikidata.org/entity/Q2807,Community of Madrid,https://wikidata.org/entity/Q5756,28045,5,Las Delicias,https://wikidata.org/entity/Q3773736,2,Arganzuela,https://wikidata.org/entity/Q2000929,441264,4471957,40.39615507486834,-3.692104179001404,,
7432674,Aparcamiento para residentes. Juan Esplandiú,Plazas: 249 Abierto 24 horas  Titularidad: Ayuntamiento de Madrid,0,http://www.madrid.es/sites/v/index.jsp?vgnextchannel=bfa48ab43d6bb410VgnVCM100000171f5a0aRCRD&vgnextoid=865c3d02e3b35410VgnVCM1000000b205a0aRCRD,"Calle de Juan Esplandiu, Madrid",https://wikidata.org/entity/Q57719867,1,,,Madrid,https://wikidata.org/entity/Q2807,Community of Madrid,https://wikidata.org/entity/Q5756,28007,3,Estrella,https://wikidata.org/entity/Q3773738,3,Retiro,https://wikidata.org/entity/Q2002296,443494,4474116,40.4157528095955,-3.66602854953252,,
13505,Aparcamiento para residentes. Juan Hurtado de Mendoza,Plazas: 269 Abierto 24 horas  Titularidad: Ayuntamiento de Madrid,0,http://www.madrid.es/sites/v/index.jsp?vgnextchannel=bfa48ab43d6bb410VgnVCM100000171f5a0aRCRD&vgnextoid=94ea7339ae51c010VgnVCM2000000c205a0aRCRD,"Calle de Juan Hurtado de Mendoza, Madrid",https://wikidata.org/entity/Q54486212,8,,,Madrid,https://wikidata.org/entity/Q2807,Community of Madrid,https://wikidata.org/entity/Q5756,28036,5,Nueva España,https://wikidata.org/entity/Q10338128,5,Chamartín,https://wikidata.org/entity/Q1766348,441775,4479058,40.46016040184583,-3.6867407236690504,,
5556588,Aparcamiento para residentes. Juan Ramón Jiménez,Plazas: 401 Abierto 24 horas  Titularidad: Ayuntamiento de Madrid,0,http://www.madrid.es/sites/v/index.jsp?vgnextchannel=bfa48ab43d6bb410VgnVCM100000171f5a0aRCRD&vgnextoid=055a0cc0caf66210VgnVCM1000000b205a0aRCRD,"Calle de Juan Ramón Jiménez, Madrid",https://wikidata.org/entity/Q29018444,49,,,Madrid,https://wikidata.org/entity/Q2807,Community of Madrid,https://wikidata.org/entity/Q5756,28036,5,Nueva España,https://wikidata.org/entity/Q10338128,5,Chamartín,https://wikidata.org/entity/Q1766348,441747,4479389,40.4631368719306,-3.68710046083546,,
81768,Aparcamiento para residentes. Lagasca,Plazas: 327 Abierto 24 horas  Titularidad: Ayuntamiento de Madrid,0,http://www.madrid.es/sites/v/index.jsp?vgnextchannel=bfa48ab43d6bb410VgnVCM100000171f5a0aRCRD&vgnextoid=089cc2c6e051c010VgnVCM2000000c205a0aRCRD,"Calle de Diego de León, Madrid",https://wikidata.org/entity/Q28059485,11,,,Madrid,https://wikidata.org/entity/Q2807,Community of Madrid,https://wikidata.org/entity/Q5756,28006,6,Castellana,https://wikidata.org/entity/Q4781,4,Salamanca,https://wikidata.org/entity/Q1773521,441998,4476272,40.43506964165062,-3.68384686761382,,
13581,Aparcamiento para residentes. Maldonado,Plazas: 721 Abierto 24 horas,0,http://www.madrid.es/sites/v/index.jsp?vgnextchannel=bfa48ab43d6bb410VgnVCM100000171f5a0aRCRD&vgnextoid=875b7339ae51c010VgnVCM2000000c205a0aRCRD,calle de Maldonado,https://wikidata.org/entity/Q28056166,34,,,Madrid,https://wikidata.org/entity/Q2807,Community of Madrid,https://wikidata.org/entity/Q5756,28006,5,Lista,https://wikidata.org/entity/Q4779,4,Salamanca,https://wikidata.org/entity/Q1773521,442405,4476113,40.43366755605813,-3.679035794267012,,
13585,Aparcamiento para residentes. Marqués de Corbera I,Plazas: 287 Abierto 24 horas,0,http://www.madrid.es/sites/v/index.jsp?vgnextchannel=bfa48ab43d6bb410VgnVCM100000171f5a0aRCRD&vgnextoid=3a2115cbed51c010VgnVCM2000000c205a0aRCRD,"Avenida del Marqués de Corbera, Madrid",https://wikidata.org/entity/Q29168364,4,-2,ESQUINA C/ JOSÉ LUIS ARRESE,Madrid,https://wikidata.org/entity/Q2807,Community of Madrid,https://wikidata.org/entity/Q5756,28017,1,Ventas,https://wikidata.org/entity/Q71762,15,Ciudad Lineal,https://wikidata.org/entity/Q1763694,444298,4474802,40.4219886928314,-3.65661292002709,,
13584,Aparcamiento para residentes. Marqués de Corbera II,Plazas: 203 Abierto 24 horas  Titularidad: Ayuntamiento de Madrid,0,http://www.madrid.es/sites/v/index.jsp?vgnextchannel=bfa48ab43d6bb410VgnVCM100000171f5a0aRCRD&vgnextoid=805115cbed51c010VgnVCM2000000c205a0aRCRD,"Avenida del Marqués de Corbera, Madrid",https://wikidata.org/entity/Q29168364,64,-2,CONFLUENCIA CON PASO ELEVADO AV. DAROCA,Madrid,https://wikidata.org/entity/Q2807,Community of Madrid,https://wikidata.org/entity/Q5756,28017,1,Ventas,https://wikidata.org/entity/Q71762,15,Ciudad Lineal,https://wikidata.org/entity/Q1763694,444922,4475405,40.4274616090481,-3.64930765911692,S/T,
4831164,Aparcamiento para residentes. Marqués de Samaranch,Plazas: 233 Abierto 24 horas.  Titularidad: Ayuntamiento de Madrid  Gestión: Empresa Municipal de Transportes (EMT) (más información),0,http://www.madrid.es/sites/v/index.jsp?vgnextchannel=bfa48ab43d6bb410VgnVCM100000171f5a0aRCRD&vgnextoid=09a455750f2a8110VgnVCM2000000c205a0aRCRD,paseo Imperial,https://wikidata.org/entity/Q118634190,20,,,Madrid,https://wikidata.org/entity/Q2807,Community of Madrid,https://wikidata.org/entity/Q5756,28005,1,Imperial,https://wikidata.org/entity/Q3773740,2,Arganzuela,https://wikidata.org/entity/Q2000929,439070,4473272,40.40784029469167,-3.7180809623916047,,
13521,Aparcamiento para residentes. Marroquina,Plazas: 683 Abierto 24 horas,0,http://www.madrid.es/sites/v/index.jsp?vgnextchannel=bfa48ab43d6bb410VgnVCM100000171f5a0aRCRD&vgnextoid=c0fb7339ae51c010VgnVCM2000000c205a0aRCRD,Calle Camino de los Vinateros,https://wikidata.org/entity/Q28935892,107,,,Madrid,https://wikidata.org/entity/Q2807,Community of Madrid,https://wikidata.org/entity/Q5756,28030,3,Marroquina,https://wikidata.org/entity/Q11935636,14,Moratalaz,https://wikidata.org/entity/Q2076109,445103,4473333,40.4088102763508,-3.64698673546286,,
24125,Aparcamiento para residentes. Martín de Alzaga,Plazas: 565 Abierto 24 horas,0,http://www.madrid.es/sites/v/index.jsp?vgnextchannel=bfa48ab43d6bb410VgnVCM100000171f5a0aRCRD&vgnextoid=3a7f6545f951c010VgnVCM2000000c205a0aRCRD,"Calle del Alcalde Martín de Alzaga, Madrid",https://wikidata.org/entity/Q56086935,6,,,Madrid,https://wikidata.org/entity/Q2807,Community of Madrid,https://wikidata.org/entity/Q5756,28039,4,Valdezarza,https://wikidata.org/entity/Q10388728,9,Moncloa-Aravaca,https://wikidata.org/entity/Q2017682,439285,4479396,40.4630233258538,-3.71613987805222,,
46136,Aparcamiento para residentes. Melchor Fernández Almagro,Plazas: 255 Abierto 24 horas  Titularidad: Ayuntamiento de Madrid,0,http://www.madrid.es/sites/v/index.jsp?vgnextchannel=bfa48ab43d6bb410VgnVCM100000171f5a0aRCRD&vgnextoid=3bb9946be351c010VgnVCM2000000c205a0aRCRD,Calle de Ginzo de Limia,https://wikidata.org/entity/Q105624986,11,,,Madrid,https://wikidata.org/entity/Q2807,Community of Madrid,https://wikidata.org/entity/Q5756,28029,4,El Pilar,https://wikidata.org/entity/Q3773964,8,Fuencarral-El Pardo,https://wikidata.org/entity/Q656196,440316,4480775,40.47551560842131,-3.704101281543605,,
183550,Aparcamiento para residentes. Menorca,Plazas: 862 Abierto: 24 horas  Titularidad: Ayuntamiento de Madrid,1,http://www.madrid.es/sites/v/index.jsp?vgnextchannel=bfa48ab43d6bb410VgnVCM100000171f5a0aRCRD&vgnextoid=9e46bdc85c01c010VgnVCM2000000c205a0aRCRD,"Calle de Narváez, Madrid",https://wikidata.org/entity/Q28936837,,,,Madrid,https://wikidata.org/entity/Q2807,Community of Madrid,https://wikidata.org/entity/Q5756,28009,2,Goya,https://wikidata.org/entity/Q3814578,4,Salamanca,https://wikidata.org/entity/Q1773521,442641,4474589,40.41995872846091,-3.676118113622223,,
81792,Aparcamiento para residentes. Miguel Ángel,Plazas: 87 Abierto: 24 horas  Titularidad: Ayuntamiento de Madrid,0,http://www.madrid.es/sites/v/index.jsp?vgnextchannel=bfa48ab43d6bb410VgnVCM100000171f5a0aRCRD&vgnextoid=8acdc2c6e051c010VgnVCM2000000c205a0aRCRD,"Calle de Miguel Ángel, Madrid",https://wikidata.org/entity/Q27991265,27,,,Madrid,https://wikidata.org/entity/Q2807,Community of Madrid,https://wikidata.org/entity/Q5756,28010,4,Almagro,https://wikidata.org/entity/Q10954432,7,Chamberí,https://wikidata.org/entity/Q1763370,441384,4476455,40.436675854674,-3.69110236627779,,
13589,Aparcamiento para residentes. Montevideo,Plazas: 290 Abierto 24 horas  Titularidad: Ayuntamiento de Madrid,0,http://www.madrid.es/sites/v/index.jsp?vgnextchannel=bfa48ab43d6bb410VgnVCM100000171f5a0aRCRD&vgnextoid=50bc7339ae51c010VgnVCM2000000c205a0aRCRD,Reina Mercedes Street,https://wikidata.org/entity/Q56783792,25,,,Madrid,https://wikidata.org/entity/Q2807,Community of Madrid,https://wikidata.org/entity/Q5756,28020,2,Cuatro Caminos,https://wikidata.org/entity/Q5824684,6,Tetuán,https://wikidata.org/entity/Q1773540,440988,4478040,40.450927803493,-3.69592480077532,,
13540,Aparcamiento para residentes. Moratalaz,Plazas: 379 Abierto 24 horas  Titularidad: Ayuntamiento de Madrid,0,http://www.madrid.es/sites/v/index.jsp?vgnextchannel=bfa48ab43d6bb410VgnVCM100000171f5a0aRCRD&vgnextoid=d67115cbed51c010VgnVCM2000000c205a0aRCRD,Avenida de Moratalaz,https://wikidata.org/entity/Q104778384,194,,,Madrid,https://wikidata.org/entity/Q2807,Community of Madrid,https://wikidata.org/entity/Q5756,28030,6,Vinateros,https://wikidata.org/entity/Q10391533,14,Moratalaz,https://wikidata.org/entity/Q2076109,445535,4473396,40.4094083553622,-3.6419048476584,,
13497,Aparcamiento para residentes. Narváez,Plazas: 523 Abierto 24 horas  Titularidad: Ayuntamiento de Madrid,0,http://www.madrid.es/sites/v/index.jsp?vgnextchannel=bfa48ab43d6bb410VgnVCM100000171f5a0aRCRD&vgnextoid=fcfc7339ae51c010VgnVCM2000000c205a0aRCRD,"Calle de Narváez, Madrid",https://wikidata.org/entity/Q28936837,21,,,Madrid,https://wikidata.org/entity/Q2807,Community of Madrid,https://wikidata.org/entity/Q5756,28009,2,Goya,https://wikidata.org/entity/Q3814578,4,Salamanca,https://wikidata.org/entity/Q1773521,442648,4474820,40.4220424811695,-3.67605484022947,,
13519,Aparcamiento para residentes. Nuestra Señora de Gracia,Plazas: 580 Titularidad: Ayuntamiento de Madrid Abierto 24 horas.,0,http://www.madrid.es/sites/v/index.jsp?vgnextchannel=bfa48ab43d6bb410VgnVCM100000171f5a0aRCRD&vgnextoid=b7ff15cbed51c010VgnVCM2000000c205a0aRCRD,"Calle de la Hacienda de Pavones, Madrid",https://wikidata.org/entity/Q28936083,204,,,Madrid,https://wikidata.org/entity/Q2807,Community of Madrid,https://wikidata.org/entity/Q5756,28030,5,Fontarrón,https://wikidata.org/entity/Q10283284,14,Moratalaz,https://wikidata.org/entity/Q2076109,445673,4472599,40.40223570989829,-3.6402079527736393,,
13640,Aparcamiento para residentes. Ofelia Nieto,,0,http://www.madrid.es/sites/v/index.jsp?vgnextchannel=bfa48ab43d6bb410VgnVCM100000171f5a0aRCRD&vgnextoid=432d7339ae51c010VgnVCM2000000c205a0aRCRD,"Calle de Ofelia Nieto, Madrid",https://wikidata.org/entity/Q26832655,55,,,Madrid,https://wikidata.org/entity/Q2807,Community of Madrid,https://wikidata.org/entity/Q5756,28039,4,Valdezarza,https://wikidata.org/entity/Q10388728,9,Moncloa-Aravaca,https://wikidata.org/entity/Q2017682,439853,4479205,40.4613441119536,-3.70941469102288,,
13543,Aparcamiento para residentes. Ortega y Gasset I,Plazas: 741 Abierto 24 horas  Titularidad: Ayuntamiento de Madrid,0,http://www.madrid.es/sites/v/index.jsp?vgnextchannel=bfa48ab43d6bb410VgnVCM100000171f5a0aRCRD&vgnextoid=bef97339ae51c010VgnVCM2000000c205a0aRCRD,"Calle de José Ortega y Gasset, Madrid",https://wikidata.org/entity/Q16540548,86,,,Madrid,https://wikidata.org/entity/Q2807,Community of Madrid,https://wikidata.org/entity/Q5756,28006,5,Lista,https://wikidata.org/entity/Q4779,4,Salamanca,https://wikidata.org/entity/Q1773521,442949,4475657,40.4296039935558,-3.67259136281143,,
13544,Aparcamiento para residentes. Ortega y Gasset II,Plazas: 549Abierto 24 horas   Titularidad: Ayuntamiento de Madrid,0,http://www.madrid.es/sites/v/index.jsp?vgnextchannel=bfa48ab43d6bb410VgnVCM100000171f5a0aRCRD&vgnextoid=052a7339ae51c010VgnVCM2000000c205a0aRCRD,"Calle de José Ortega y Gasset, Madrid",https://wikidata.org/entity/Q16540548,50,,,Madrid,https://wikidata.org/entity/Q2807,Community of Madrid,https://wikidata.org/entity/Q5756,28006,5,Lista,https://wikidata.org/entity/Q4779,4,Salamanca,https://wikidata.org/entity/Q1773521,442488,4475701,40.4299649140342,-3.6780293892857,,
13549,Aparcamiento para residentes. Ortega y Gasset III,Plazas: 402 Abierto 24 horas  Titularidad: Ayuntamiento de Madrid,0,http://www.madrid.es/sites/v/index.jsp?vgnextchannel=bfa48ab43d6bb410VgnVCM100000171f5a0aRCRD&vgnextoid=5b4a7339ae51c010VgnVCM2000000c205a0aRCRD,"Calle de José Ortega y Gasset, Madrid",https://wikidata.org/entity/Q16540548,39,,,Madrid,https://wikidata.org/entity/Q2807,Community of Madrid,https://wikidata.org/entity/Q5756,28006,6,Castellana,https://wikidata.org/entity/Q4781,4,Salamanca,https://wikidata.org/entity/Q1773521,442267,4475732,40.4302318954595,-3.68062850571466,,
13553,Aparcamiento para residentes. Ortega y Gasset IV,Plazas: 369 Abierto 24 horas  Titularidad: Ayuntamiento de Madrid,0,http://www.madrid.es/sites/v/index.jsp?vgnextchannel=bfa48ab43d6bb410VgnVCM100000171f5a0aRCRD&vgnextoid=a17a7339ae51c010VgnVCM2000000c205a0aRCRD,"Calle de José Ortega y Gasset, Madrid",https://wikidata.org/entity/Q16540548,19,,,Madrid,https://wikidata.org/entity/Q2807,Community of Madrid,https://wikidata.org/entity/Q5756,28006,6,Castellana,https://wikidata.org/entity/Q4781,4,Salamanca,https://wikidata.org/entity/Q1773521,441956,4475755,40.430415377787,-3.68430325770319,,
13591,Aparcamiento para residentes. Pablo Iglesias I,Plazas: 180 Abierto 24 horas  Titularidad: Ayuntamiento de Madrid,0,http://www.madrid.es/sites/v/index.jsp?vgnextchannel=bfa48ab43d6bb410VgnVCM100000171f5a0aRCRD&vgnextoid=2d9115cbed51c010VgnVCM2000000c205a0aRCRD,avenida de Pablo Iglesias,https://wikidata.org/entity/Q28045035,16,,,Madrid,https://wikidata.org/entity/Q2807,Community of Madrid,https://wikidata.org/entity/Q5756,28003,6,Vallehermoso,https://wikidata.org/entity/Q6122685,7,Chamberí,https://wikidata.org/entity/Q1763370,440094,4477428,40.445348641721,-3.70640585626876,,
13517,Aparcamiento para residentes. Pablo Iglesias II,Plazas: 504 Abierto 24 horas  Titularidad: Ayuntamiento de Madrid,0,http://www.madrid.es/sites/v/index.jsp?vgnextchannel=bfa48ab43d6bb410VgnVCM100000171f5a0aRCRD&vgnextoid=73c115cbed51c010VgnVCM2000000c205a0aRCRD,avenida de Pablo Iglesias,https://wikidata.org/entity/Q28045035,40,,,Madrid,https://wikidata.org/entity/Q2807,Community of Madrid,https://wikidata.org/entity/Q5756,28039,1,Bellas Vistas,https://wikidata.org/entity/Q11908929,6,Tetuán,https://wikidata.org/entity/Q1773540,439854,4477823,40.4488950198199,-3.70927628438264,,
81799,Aparcamiento para residentes. Panamá,Plazas: 435 Abierto 24 horas   Titularidad: Ayuntamiento de Madrid,0,http://www.madrid.es/sites/v/index.jsp?vgnextchannel=bfa48ab43d6bb410VgnVCM100000171f5a0aRCRD&vgnextoid=7d3ec2c6e051c010VgnVCM2000000c205a0aRCRD,CALLE PANAMA,,,,,Madrid,https://wikidata.org/entity/Q2807,Community of Madrid,https://wikidata.org/entity/Q5756,28036,4,Hispanoamérica,https://wikidata.org/entity/Q3814573,5,Chamartín,https://wikidata.org/entity/Q1766348,441650,4478691,40.45684474123101,-3.688183135413921,,
13619,Aparcamiento para residentes. Paseo de Pintor Rosales I,Plazas: 315 Abierto 24 horas  Titularidad: Ayuntamiento de Madrid,0,http://www.madrid.es/sites/v/index.jsp?vgnextchannel=bfa48ab43d6bb410VgnVCM100000171f5a0aRCRD&vgnextoid=79f27339ae51c010VgnVCM2000000c205a0aRCRD,Paseo del Pintor Rosales,https://wikidata.org/entity/Q6065691,40,,c/v Marqués de Urquijo,Madrid,https://wikidata.org/entity/Q2807,Community of Madrid,https://wikidata.org/entity/Q5756,28008,2,Argüelles,https://wikidata.org/entity/Q64874,9,Moncloa-Aravaca,https://wikidata.org/entity/Q2017682,438803,4475567,40.42849414397224,-3.721452095219881,,
13620,Aparcamiento para residentes. Paseo de Pintor Rosales II,Plazas: 696 Abierto 24 horas  Titularidad: Ayuntamiento de Madrid,0,http://www.madrid.es/sites/v/index.jsp?vgnextchannel=bfa48ab43d6bb410VgnVCM100000171f5a0aRCRD&vgnextoid=cf137339ae51c010VgnVCM2000000c205a0aRCRD,Paseo del Pintor Rosales,https://wikidata.org/entity/Q6065691,56,,,Madrid,https://wikidata.org/entity/Q2807,Community of Madrid,https://wikidata.org/entity/Q5756,28008,2,Argüelles,https://wikidata.org/entity/Q64874,9,Moncloa-Aravaca,https://wikidata.org/entity/Q2017682,438662,4475757,40.430198647546,-3.72312731774697,,
13637,Aparcamiento para residentes. Paseo de Pintor Rosales III,Plazas: 733 Abierto 24 horas  Titularidad: Ayuntamiento de Madrid,0,http://www.madrid.es/sites/v/index.jsp?vgnextchannel=bfa48ab43d6bb410VgnVCM100000171f5a0aRCRD&vgnextoid=16437339ae51c010VgnVCM2000000c205a0aRCRD,Paseo del Pintor Rosales,https://wikidata.org/entity/Q6065691,1,,c/v Rey Francisco,Madrid,https://wikidata.org/entity/Q2807,Community of Madrid,https://wikidata.org/entity/Q5756,28008,1,Casa de Campo,https://wikidata.org/entity/Q16302441,9,Moncloa-Aravaca,https://wikidata.org/entity/Q2017682,439208,4475178,40.42501546634872,-3.7166405848374517,,
24131,Aparcamiento para residentes. Peñuelas,Plazas: 239 Abierto 24 horas  Titularidad: Ayuntamiento de Madrid,0,http://www.madrid.es/sites/v/index.jsp?vgnextchannel=bfa48ab43d6bb410VgnVCM100000171f5a0aRCRD&vgnextoid=92916545f951c010VgnVCM2000000c205a0aRCRD,"Paseo de la Esperanza, Madrid",https://wikidata.org/entity/Q55947011,8,,,Madrid,https://wikidata.org/entity/Q2807,Community of Madrid,https://wikidata.org/entity/Q5756,28005,2,Las Acacias,https://wikidata.org/entity/Q3319190,2,Arganzuela,https://wikidata.org/entity/Q2000929,440126,4472657,40.4023740747468,-3.70557685986881,,
81802,Aparcamiento para residentes. Pilar de Zaragoza,Plazas: 180 Abierto 24 horas  Titularidad: Ayuntamiento de Madrid,0,http://www.madrid.es/sites/v/index.jsp?vgnextchannel=bfa48ab43d6bb410VgnVCM100000171f5a0aRCRD&vgnextoid=1a8ec2c6e051c010VgnVCM2000000c205a0aRCRD,calle del Pilar de Zaragoza,https://wikidata.org/entity/Q118608816,54,,,Madrid,https://wikidata.org/entity/Q2807,Community of Madrid,https://wikidata.org/entity/Q5756,28028,4,La Guindalera,https://wikidata.org/entity/Q3814559,4,Salamanca,https://wikidata.org/entity/Q1773521,443079,4476336,40.435724728216,-3.67111448995106,,
13593,Aparcamiento para residentes. Pío Baroja I,Plazas: 495 Abierto 24 horas  Titularidad: Ayuntamiento de Madrid,0,http://www.madrid.es/sites/v/index.jsp?vgnextchannel=bfa48ab43d6bb410VgnVCM100000171f5a0aRCRD&vgnextoid=c55e7339ae51c010VgnVCM2000000c205a0aRCRD,calle de Pío Baroja,https://wikidata.org/entity/Q118724995,8,,,Madrid,https://wikidata.org/entity/Q2807,Community of Madrid,https://wikidata.org/entity/Q5756,28009,6,Niño Jesús,https://wikidata.org/entity/Q3773746,3,Retiro,https://wikidata.org/entity/Q2002296,442768,4473862,40.413417443948205,-3.6745551353834545,,
5298038,Aparcamiento para residentes. Poeta Leopoldo de Luis,Plazas: 314 Abierto 24 horas  Titularidad: Ayuntamiento de Madrid,0,http://www.madrid.es/sites/v/index.jsp?vgnextchannel=bfa48ab43d6bb410VgnVCM100000171f5a0aRCRD&vgnextoid=a94e8235c3580210VgnVCM1000000b205a0aRCRD,CALLE NAVARRA,,15,,,Madrid,https://wikidata.org/entity/Q2807,Community of Madrid,https://wikidata.org/entity/Q5756,28039,1,Bellas Vistas,https://wikidata.org/entity/Q11908929,6,Tetuán,https://wikidata.org/entity/Q1773540,440292,4478304,40.45325490763682,-3.7041514805872615,,
13488,Aparcamiento para residentes. Pradillo,Plazas: 143 Abierto 24 horas  Titularidad: Ayuntamiento de Madrid,0,http://www.madrid.es/sites/v/index.jsp?vgnextchannel=bfa48ab43d6bb410VgnVCM100000171f5a0aRCRD&vgnextoid=1c7e7339ae51c010VgnVCM2000000c205a0aRCRD,Calle de Mantuano,https://wikidata.org/entity/Q27048291,60,,,Madrid,https://wikidata.org/entity/Q2807,Community of Madrid,https://wikidata.org/entity/Q5756,28002,3,Ciudad Jardín,https://wikidata.org/entity/Q3773744,5,Chamartín,https://wikidata.org/entity/Q1766348,442717,4477750,40.4484340334876,-3.67551341725092,,
7401268,Aparcamiento para residentes. Pradillo II,Plazas: 68 Abierto 24 horas  Titularidad: Ayuntamiento de Madrid  Gestión: Empresa Municipal de Transportes (EMT) (más información),0,http://www.madrid.es/sites/v/index.jsp?vgnextchannel=bfa48ab43d6bb410VgnVCM100000171f5a0aRCRD&vgnextoid=e84b78a52ffd4410VgnVCM1000000b205a0aRCRD,calle de Pradillo,https://wikidata.org/entity/Q55868790,39,,,Madrid,https://wikidata.org/entity/Q2807,Community of Madrid,https://wikidata.org/entity/Q5756,28002,3,Ciudad Jardín,https://wikidata.org/entity/Q3773744,5,Chamartín,https://wikidata.org/entity/Q1766348,443090,4477827,40.44916077138956,-3.6711129463989627,,
13596,Aparcamiento para residentes. Puerto Monasterio,Plazas: 244 Abierto 24 horas  Titularidad: Ayuntamiento de Madrid,0,http://www.madrid.es/sites/v/index.jsp?vgnextchannel=bfa48ab43d6bb410VgnVCM100000171f5a0aRCRD&vgnextoid=62ae7339ae51c010VgnVCM2000000c205a0aRCRD,CALLE PUERTO DEL MONASTERIO,,17,-2,,Madrid,https://wikidata.org/entity/Q2807,Community of Madrid,https://wikidata.org/entity/Q5756,28053,2,San Diego,https://wikidata.org/entity/Q11946851,13,Puente de Vallecas,https://wikidata.org/entity/Q2003054,443659,4471752,40.394466830465,-3.66386420792577,,
13509,Aparcamiento para residentes. Rafael Finat,Plazas: 311 Abierto 24 horas  Titularidad: Ayuntamiento de Madrid  Teléfono: 91 705 91 23,0,http://www.madrid.es/sites/v/index.jsp?vgnextchannel=bfa48ab43d6bb410VgnVCM100000171f5a0aRCRD&vgnextoid=b8ce7339ae51c010VgnVCM2000000c205a0aRCRD,"Calle de Rafael Finat, Madrid",https://wikidata.org/entity/Q29648073,44,,,Madrid,https://wikidata.org/entity/Q2807,Community of Madrid,https://wikidata.org/entity/Q5756,28044,7,Las Águilas,https://wikidata.org/entity/Q5971372,10,Latina,https://wikidata.org/entity/Q794954,434595,4470130,40.37919695063071,-3.770494446474416,,
24132,Aparcamiento para residentes. Rafaela Ybarra,Plazas: 257 Abierto 24 horas  Titularidad: Ayuntamiento de Madrid,0,http://www.madrid.es/sites/v/index.jsp?vgnextchannel=bfa48ab43d6bb410VgnVCM100000171f5a0aRCRD&vgnextoid=e35f6545f951c010VgnVCM2000000c205a0aRCRD,avenida de Rafaela Ybarra,https://wikidata.org/entity/Q110749248,61,,FRENTE C/ ANTONIO PRIETO,Madrid,https://wikidata.org/entity/Q2807,Community of Madrid,https://wikidata.org/entity/Q5756,28026,7,Pradolongo,https://wikidata.org/entity/Q10352360,12,Usera,https://wikidata.org/entity/Q953368,439629,4470237,40.3805393289858,-3.71120392518426,,
13599,Aparcamiento para residentes. Ramos Carrión,Plazas: 579 Abierto 24 horas  Titularidad: Ayuntamiento de Madrid,0,http://www.madrid.es/sites/v/index.jsp?vgnextchannel=bfa48ab43d6bb410VgnVCM100000171f5a0aRCRD&vgnextoid=ab3f7339ae51c010VgnVCM2000000c205a0aRCRD,Clara del Rey Street,https://wikidata.org/entity/Q28055037,61,,,Madrid,https://wikidata.org/entity/Q2807,Community of Madrid,https://wikidata.org/entity/Q5756,28002,2,Prosperidad,https://wikidata.org/entity/Q4776,5,Chamartín,https://wikidata.org/entity/Q1766348,443328,4477486,40.44610227199064,-3.6682823210085007,,
81827,Aparcamiento para residentes. Reina Victoria,Plazas: 383 Abierto 24 horas  Titularidad: Ayuntamiento de Madrid,0,http://www.madrid.es/sites/v/index.jsp?vgnextchannel=bfa48ab43d6bb410VgnVCM100000171f5a0aRCRD&vgnextoid=a4ecc2c6e051c010VgnVCM2000000c205a0aRCRD,Avenida de la Reina Victoria,https://wikidata.org/entity/Q5714243,37,,,Madrid,https://wikidata.org/entity/Q2807,Community of Madrid,https://wikidata.org/entity/Q5756,28003,3,Ciudad Universitaria,https://wikidata.org/entity/Q3319235,9,Moncloa-Aravaca,https://wikidata.org/entity/Q2017682,439798,4477610,40.446975215559675,-3.7099147475442695,,
81829,Aparcamiento para residentes. Ríos Rosas,Plazas: 256 Abierto 24 horas  Titularidad: Ayuntamiento de Madrid,0,http://www.madrid.es/sites/v/index.jsp?vgnextchannel=bfa48ab43d6bb410VgnVCM100000171f5a0aRCRD&vgnextoid=60bec2c6e051c010VgnVCM2000000c205a0aRCRD,Calle de Ríos Rosas,https://wikidata.org/entity/Q27267331,14,,,Madrid,https://wikidata.org/entity/Q2807,Community of Madrid,https://wikidata.org/entity/Q5756,28003,5,Ríos Rosas,https://wikidata.org/entity/Q10366270,7,Chamberí,https://wikidata.org/entity/Q1763370,440465,4477044,40.4419186898844,-3.70199797143224,,
13600,Aparcamiento para residentes. San Amaro,Plazas: 220 Abierto 24 horas  Titularidad: Ayuntamiento de Madrid,0,http://www.madrid.es/sites/v/index.jsp?vgnextchannel=bfa48ab43d6bb410VgnVCM100000171f5a0aRCRD&vgnextoid=28357339ae51c010VgnVCM2000000c205a0aRCRD,"Avenida del Presidente Carmona, Madrid",https://wikidata.org/entity/Q28966694,4,,,Madrid,https://wikidata.org/entity/Q2807,Community of Madrid,https://wikidata.org/entity/Q5756,28020,2,Cuatro Caminos,https://wikidata.org/entity/Q5824684,6,Tetuán,https://wikidata.org/entity/Q1773540,440900,4478326,40.4535000774919,-3.69699044337177,,
81830,Aparcamiento para residentes. San Cipriano,Plazas: 149 Abierto 24 horas  Titularidad: Ayuntamiento de Madrid  Teléfonos: 91 032 73 18                    654 651 152,0,http://www.madrid.es/sites/v/index.jsp?vgnextchannel=bfa48ab43d6bb410VgnVCM100000171f5a0aRCRD&vgnextoid=e476bdc85c01c010VgnVCM2000000c205a0aRCRD,calle de San Cipriano,https://wikidata.org/entity/Q34463888,66,,,Madrid,https://wikidata.org/entity/Q2807,Community of Madrid,https://wikidata.org/entity/Q5756,28032,1,Casco Histórico de Vicálvaro,https://wikidata.org/entity/Q16544374,19,Vicálvaro,https://wikidata.org/entity/Q589403,448931,4472766,40.4039447408273,-3.6018363181584,,
13602,Aparcamiento para residentes. San Francisco de Sales I,Plazas: 284 Abierto 24 horas  Titularidad: Ayuntamiento de Madrid,0,http://www.madrid.es/sites/v/index.jsp?vgnextchannel=bfa48ab43d6bb410VgnVCM100000171f5a0aRCRD&vgnextoid=6c637339ae51c010VgnVCM2000000c205a0aRCRD,"Paseo de San Francisco de Sales, Madrid",https://wikidata.org/entity/Q27267304,30,,,Madrid,https://wikidata.org/entity/Q2807,Community of Madrid,https://wikidata.org/entity/Q5756,28003,6,Vallehermoso,https://wikidata.org/entity/Q6122685,7,Chamberí,https://wikidata.org/entity/Q1763370,439451,4476988,40.44134611193622,-3.7139524382519977,,
81831,Aparcamiento para residentes. San Francisco de Sales II,Plazas: 447 Abierto 24 horas  Titularidad: Ayuntamiento de Madrid,0,http://www.madrid.es/sites/v/index.jsp?vgnextchannel=bfa48ab43d6bb410VgnVCM100000171f5a0aRCRD&vgnextoid=7437bdc85c01c010VgnVCM2000000c205a0aRCRD,"Paseo de San Francisco de Sales, Madrid",https://wikidata.org/entity/Q27267304,28,,,Madrid,https://wikidata.org/entity/Q2807,Community of Madrid,https://wikidata.org/entity/Q5756,28003,6,Vallehermoso,https://wikidata.org/entity/Q6122685,7,Chamberí,https://wikidata.org/entity/Q1763370,439366,4476939,40.4408936787857,-3.71495013522023,,
81836,Aparcamiento para residentes. Santa Cruz,Plazas: 152 Abierto 24 horas  Titularidad: Ayuntamiento de Madrid,0,http://www.madrid.es/sites/v/index.jsp?vgnextchannel=bfa48ab43d6bb410VgnVCM100000171f5a0aRCRD&vgnextoid=1187bdc85c01c010VgnVCM2000000c205a0aRCRD,"Plaza de Santa Cruz, Madrid",https://wikidata.org/entity/Q6080086,1,,,Madrid,https://wikidata.org/entity/Q2807,Community of Madrid,https://wikidata.org/entity/Q5756,28012,6,Sol,https://wikidata.org/entity/Q2465181,1,Centro,https://wikidata.org/entity/Q1763376,440186,4474020,40.41465988668191,-3.7049974834741546,,
13496,Aparcamiento para residentes. Santa Susana,Plazas: 329 Abierto 24 horas  Titularidad: Ayuntamiento de Madrid,0,http://www.madrid.es/sites/v/index.jsp?vgnextchannel=bfa48ab43d6bb410VgnVCM100000171f5a0aRCRD&vgnextoid=3bff7339ae51c010VgnVCM2000000c205a0aRCRD,CALLE SANTA SUSANA,,55,,,Madrid,https://wikidata.org/entity/Q2807,Community of Madrid,https://wikidata.org/entity/Q5756,28033,4,Pinar del Rey,https://wikidata.org/entity/Q10349788,16,Hortaleza,https://wikidata.org/entity/Q1928529,445058,4481241,40.4800454595647,-3.64821017159422,S/T,
81838,Aparcamiento para residentes. Santander,Plazas: 221 Abierto 24 horas  Titularidad: Ayuntamiento de Madrid,0,http://www.madrid.es/sites/v/index.jsp?vgnextchannel=bfa48ab43d6bb410VgnVCM100000171f5a0aRCRD&vgnextoid=81c6bdc85c01c010VgnVCM2000000c205a0aRCRD,"Paseo de San Francisco de Sales, Madrid",https://wikidata.org/entity/Q27267304,39,,,Madrid,https://wikidata.org/entity/Q2807,Community of Madrid,https://wikidata.org/entity/Q5756,28003,6,Vallehermoso,https://wikidata.org/entity/Q6122685,7,Chamberí,https://wikidata.org/entity/Q1763370,439798,4477342,40.44455548434968,-3.709895697474288,,
24138,Aparcamiento para residentes. Sarriá,Plazas: 517 Abierto 24 horas  Titularidad: Ayuntamiento de Madrid,0,http://www.madrid.es/sites/v/index.jsp?vgnextchannel=bfa48ab43d6bb410VgnVCM100000171f5a0aRCRD&vgnextoid=3fd16545f951c010VgnVCM2000000c205a0aRCRD,CALLE SARRIA,,67,,,Madrid,https://wikidata.org/entity/Q2807,Community of Madrid,https://wikidata.org/entity/Q5756,28029,4,El Pilar,https://wikidata.org/entity/Q3773964,8,Fuencarral-El Pardo,https://wikidata.org/entity/Q656196,439452,4480831,40.4759603776235,-3.71430016116734,,
13492,Aparcamiento para residentes. Sor Ángela de la Cruz,Plazas: 250 Abierto 24 horas  Titularidad: Ayuntamiento de Madrid,0,http://www.madrid.es/sites/v/index.jsp?vgnextchannel=bfa48ab43d6bb410VgnVCM100000171f5a0aRCRD&vgnextoid=2e607339ae51c010VgnVCM2000000c205a0aRCRD,"Calle de Sor Ángela de la Cruz, Madrid",https://wikidata.org/entity/Q21011321,27,,,Madrid,https://wikidata.org/entity/Q2807,Community of Madrid,https://wikidata.org/entity/Q5756,28020,3,Castillejos,https://wikidata.org/entity/Q11913212,6,Tetuán,https://wikidata.org/entity/Q1773540,440948,4479031,40.4598568460617,-3.69649048133011,,
13489,Aparcamiento para residentes. Uruguay,Plazas: 246 Abierto 24 horas  Titularidad: Ayuntamiento de Madrid,0,http://www.madrid.es/sites/v/index.jsp?vgnextchannel=bfa48ab43d6bb410VgnVCM100000171f5a0aRCRD&vgnextoid=11e07339ae51c010VgnVCM2000000c205a0aRCRD,CALLE URUGUAY,,16,,,Madrid,https://wikidata.org/entity/Q2807,Community of Madrid,https://wikidata.org/entity/Q5756,28016,4,Hispanoamérica,https://wikidata.org/entity/Q3814573,5,Chamartín,https://wikidata.org/entity/Q1766348,442939,4478467,40.45491579186842,-3.6729545093535205,,
13559,Aparcamiento para residentes. Valladolid,Plazas: 421 Abierto 24 horas  Titularidad: Ayuntamiento de Madrid,0,http://www.madrid.es/sites/v/index.jsp?vgnextchannel=bfa48ab43d6bb410VgnVCM100000171f5a0aRCRD&vgnextoid=101215cbed51c010VgnVCM2000000c205a0aRCRD,"Avenida de Valladolid, Madrid",https://wikidata.org/entity/Q29903461,10,,,Madrid,https://wikidata.org/entity/Q2807,Community of Madrid,https://wikidata.org/entity/Q5756,28008,1,Casa de Campo,https://wikidata.org/entity/Q16302441,9,Moncloa-Aravaca,https://wikidata.org/entity/Q2017682,437993,4475786,40.430403855192,-3.73101574319727,,
24141,Aparcamiento para residentes. Valle de Suchil,Plazas: 1.126 Abierto 24 horas  Titularidad: Ayuntamiento de Madrid,0,http://www.madrid.es/sites/v/index.jsp?vgnextchannel=bfa48ab43d6bb410VgnVCM100000171f5a0aRCRD&vgnextoid=22526545f951c010VgnVCM2000000c205a0aRCRD,calle de Arapiles,https://wikidata.org/entity/Q27243804,12,,,Madrid,https://wikidata.org/entity/Q2807,Community of Madrid,https://wikidata.org/entity/Q5756,28015,2,Arapiles,https://wikidata.org/entity/Q10856744,7,Chamberí,https://wikidata.org/entity/Q1763370,439962,4476026,40.4327140924793,-3.70783765600394,,
13610,Aparcamiento para residentes. Virgen de La Alegría,Plazas: 138 Abierto 24 horas  Titularidad: Ayuntamiento de Madrid,0,http://www.madrid.es/sites/v/index.jsp?vgnextchannel=bfa48ab43d6bb410VgnVCM100000171f5a0aRCRD&vgnextoid=f6c17339ae51c010VgnVCM2000000c205a0aRCRD,CALLE VIRGEN DE LA ALEGRIA,,19,,,Madrid,https://wikidata.org/entity/Q2807,Community of Madrid,https://wikidata.org/entity/Q5756,28027,4,Concepción,https://wikidata.org/entity/Q11915156,15,Ciudad Lineal,https://wikidata.org/entity/Q1763694,444300,4476142,40.43406048233506,-3.656701823170881,,
13611,Aparcamiento para residentes. Virgen del Puerto,Plazas: 793 Abierto 24 horas  Titularidad: Ayuntamiento de Madrid,0,http://www.madrid.es/sites/v/index.jsp?vgnextchannel=bfa48ab43d6bb410VgnVCM100000171f5a0aRCRD&vgnextoid=b2937339ae51c010VgnVCM2000000c205a0aRCRD,"Paseo de la Virgen del Puerto, Madrid",https://wikidata.org/entity/Q6065659,7,,,Madrid,https://wikidata.org/entity/Q2807,Community of Madrid,https://wikidata.org/entity/Q5756,28005,1,Imperial,https://wikidata.org/entity/Q3773740,2,Arganzuela,https://wikidata.org/entity/Q2000929,438832,4473898,40.4134630479791,-3.72094736367542,,
13463,Aparcamiento público. Plaza de España,Plazas: 800 (hasta 535 abonados) Abierto 24 horas    Titularidad: Ayuntamiento de Madrid  Gestión: Empresa Municipal de Transportes (EMT) (más información),0,http://www.madrid.es/sites/v/index.jsp?vgnextchannel=bfa48ab43d6bb410VgnVCM100000171f5a0aRCRD&vgnextoid=fb977339ae51c010VgnVCM2000000c205a0aRCRD,plaza de España,https://wikidata.org/entity/Q1326261,1,,,Madrid,https://wikidata.org/entity/Q2807,Community of Madrid,https://wikidata.org/entity/Q5756,28008,1,Palacio,https://wikidata.org/entity/Q2136510,1,Centro,https://wikidata.org/entity/Q1763376,439641,4475037,40.4237811996075,-3.71152321262521,,
